store,address,lat,lng
순천법원점,전남 순천시 왕지5길 11,34.9722003,127.5236029
청주강서점,충북 청주시 흥덕구 서현중로35 1층,36.6217029,127.4290821
부산정관점,부산광역시 기장군 정관읍 정관로 395 (모전리) 102호,35.3341599,129.1660003
성가롤로병원점,전라남도 순천시 순광로 221,34.9647334,127.5437074
진영이진점,경상남도 김해시 진영읍 진산대로 63-11 (진영리) 1층,35.3120842,128.7262093
경산사동사랑점,경상북도 경산시 백자로 71 (사동) 1층,35.8123622,128.7549013
경주중앙점,경상북도 경주시 중앙로 49 (동부동) 1층,35.8443098,129.2114484
순천신대점,전남 순천시 해룡면 향매로 77 1층,34.9339769,127.5477995
카페노원역점,서울특별시 노원구 노해로79길 6-19 1,37.6554909,127.0624641
경주충효서라벌중앙점,경상북도 경주시 충효중앙길 57 (충효동) 1층,35.8432444,129.1845569
동탄목동점,경기도 화성시 동탄순환대로 400 (목동) 1층,37.1829648,127.1231421
합정메세나점,"서울특별시 마포구 양화로 45 (서교동,메세나폴리스) 지하 1층 173, 115호",37.5510463,126.9137390
의정부고산점,"경기도 의정부시 수암로 4 현대타워 101,102호",37.7285400,127.1107629
울산전하동점,울산광역시 동구 진성14길 114 (전하동) 1층,35.5106607,129.4261870
운정건강공원점,"경기도 파주시 가온로 116 (목동동) 1층 103호, 104호",37.7205664,126.7454550
대전관저센터점,대전 서구 관저북로 53 1층,36.3066399,127.3368325
진해용원점,"경상남도 창원시 진해구 용원로 9 (용원동,엠파이어)",35.1006632,128.8105390
김천부곡센트럴점,"경상북도 김천시 부곡길 201 (부곡동) 경북 김천시 부곡길 2011층 102호,103",36.1258358,128.0993120
김포마산점,"경기도 김포시 김포한강8로 173-59 (마산동,E편한세상한강신도시2차) 113,114,1",37.6362250,126.6391621
제주김녕하나로점,제주특별자치도 제주시 구좌읍 김송로 14 (김녕리) 하나로마트 1층,33.5489487,126.7520054
독산지식산업센타점,"서울특별시 금천구 두산로 70 (독산동,현대지식산업센터) L층 TL-110호",37.4689627,126.8956207
뱅뱅사거리점,"서울특별시 강남구 도곡로 112 (도곡동,서한빌딩) 101호",37.4896623,127.0328546
권선아이파크점,"경기도 수원시 권선구 동수원로145번길 24 (권선동,수원아이파크시티2단지) 1층",37.2451197,127.0294582
아산둔포농협하나로마트점,충청남도 아산시 둔포면 둔포중앙로 136 (둔포리) 둔포농협하나로마트,36.9284850,127.0378750
청주가마지구점,충청북도 청주시 서원구 남이면 청남로 1827-32 (가마리) 1층,36.5991013,127.4702147
종로구청점,서울특별시 종로구 종로5길 34 (청진동) 1층,37.5718165,126.9806331
당진수청점,충남 당진시 수청동 1393 1층,36.8880375,126.6520941
카페안산중앙점,"경기도 안산시 단원구 고잔로 76 (고잔동,영풍빌딩) 영풍맘모스프라자 1층(123호,124호",37.3189133,126.8348265
아현역점,"서울특별시 서대문구 신촌로35길 10 (북아현동,e편한세상신촌4단지) B1",37.5586219,126.9558605
포항성모병원점,"경상북도 포항시 남구 대잠동길 17 (대잠동,포항성모병원) 외래동 1층",36.0159003,129.3399527
창원메트로시티점,"경상남도 창원시 마산회원구 삼호로 80 (양덕동,메트로시티2단지) 210동 114호",35.2254724,128.5857339
김포청송점,"경기도 김포시 김포한강2로 361 (장기동,호반베르디움6차더퍼스트)",37.6525764,126.6701365
인천남촌점,인천광역시 남동구 남촌동로3번길 36 (남촌동) 1층,37.4313844,126.7159505
서산코아루점,충청남도 서산시 고운로 275-6 (동문동) 1층,36.7849254,126.4659757
부산동아대병원점,부산광역시 서구 대신공원로26 구덕2관 2층,35.1201682,129.0175391
부산학장본점점,부산광역시 사상구 학감대로 111 (학장동) 1층,35.1408948,128.9876525
목동사거리점,서울특별시 강서구 곰달래로 245 (화곡동) 1층,37.5321311,126.8602528
대구다사점,"대구달서구 달성군 다사읍 다사로 71 금호어울림 센트럴 상가 202동 B104호, B105호",,
거제유로스카이점,경상남도 거제시 고현항2로 51,34.8961143,128.6216709
브레드캐스트점,"서울특별시 마포구 상암산로 66 (상암동,CJ E&M CENTER) 1층, 지하1층",37.5783960,126.8915221
안동정하점,경상북도 안동시 강남5길 39 (정하동) 1층,36.5504288,128.7339935
세종반곡점,"세종특별자치시  한누리대로 1864 (반곡동,수루배마을1단지근린생활시설) 단지내상가 109",36.4982602,127.3086369
동탄성심병원점,경기도 화성시 큰재봉길 7 (석우동) 한림대학교동탄성심병원,37.2166284,127.0801288
인천귤현점,인천시 계양구 양지로 139,37.5669788,126.7484285
인천숭의점,인천광역시 미추홀구 인주대로45번길 44 (숭의동) 1층,37.4611078,126.6444491
양주고읍중앙점,"경기도 양주시 고읍남로 1 (광사동,힘찬프라자) 1층",37.7956411,127.0810221
하남신장점,경기도 하남시 더우개로 29 1층,37.5410007,127.2209200
청주오창센트럴파크점,충북 청주시 청원구 오창공원로96 한신더휴 상가,36.7129423,127.4224550
충북금왕중앙점,충청북도 음성군 금왕읍 무극로 224,36.9910643,127.5867557
영주가흥제일점,대학로222 1층,36.1883786,127.1153548
횡성점,강원특별자치도 횡성군 횡성읍 문정로 20 (읍하리),37.4897885,127.9855271
의정부민락행복점,"경기도 의정부시 오목로 105 (민락동,세종빌딩) 1층",37.7374234,127.0925220
대전도안목원대점,대전광역시 서구 도안북로 116 (도안동) 1층,36.3300132,127.3413447
평택청북점,경기 청북남로 278,37.0195353,126.9135711
기흥테라타워점,"경기도 용인시 기흥구 서천로201번길 11 (농서동,기흥테라타워지식산업센터) B1 69~70호",37.2313712,127.0718813
카페송파파크하비오점,"서울특별시 송파구 송파대로 111 (문정동,파크하비오) 203동 110호~113호",37.4805094,127.1232611
부산일광신도시점,부산 기장군 일광읍 해빛2로 21 E편한세상 상가동 1층,35.2685066,129.2253552
배곧SK점,"경기도 시흥시 배곧3로 27-7 (정왕동,시흥배곧에스케이뷰) 1동 107-109호",37.3758749,126.7246337
제주함덕점,제주특별자치도 제주시 조천읍 신북로 546 (함덕리) 1층,33.5410143,126.6680435
명지대사거리점,경기도 용인시 처인구 중부대로 1303 (역북동) 1층,37.2362702,127.1896628
청주가경아이파크점,"충청북도 청주시 흥덕구 서현로68(가경동) 가경아이파크 2단지 상가동 B106, 107호",36.6158334,127.4318433
동탄예당마을점,"경기도 화성시 동탄반석로 230 (석우동,동탄예당마을신일유토빌) 108,109호",37.2084161,127.0742993
길동중앙점,서울특별시 강동구 양재대로  1478 (길동),37.5376961,127.1402416
부산남산점,부산광역시 금정구 남산로 2 (남산동),35.2669825,129.0921139
광명센트베르점,경기도 광명시 새터로 27 (광명동) 광명센트베르상가 109~111호,37.4707696,126.8524620
호구포역점,"인천광역시 남동구 호구포로 219 (논현동,세중프라자) 1층",37.4026242,126.7095716
사상구청점,부산광역시 사상구 학감대로 236 (감전동) 1층,35.1519682,128.9903335
명동역점,"서울특별시 중구 퇴계로 131,1층(충무로2가,신일빌딩)",37.5612798,126.9864204
매교솔밭사거리점,경기도 수원시 팔달구 세지로 150 (인계동) 1층,37.2648514,127.0210447
이천상승대점,경기도 이천시 장호원읍 경충대로597번길 251 (이황리) 1층,37.1624465,127.5752047
울산온산덕신점,울산광역시 울주군 온산읍 덕남로 93 (덕신리) 1층,35.4290368,129.3063777
상무점,광주광역시 서구 치평로 32 (치평동),35.1501482,126.8476463
인천논현점,인천광역시 남동구 에코중앙로156번길 5-19 (논현동) 1층,37.3918905,126.7266082
김포양곡점,"경기도 김포시 양촌읍 양곡1로 65 (양곡리) 104, 105호",37.6563102,126.6228820
일산산들점,경기도 고양시 일산서구 고양대로 726 (일산동) 1층,37.6828074,126.7766095
[오생성]부산엄궁점,"부산광역시 사상구 엄궁로203번길 40 (엄궁동,송학빌딩) 1층",35.1288889,128.9718230
카페수원망포점,"경기도 수원시 영통구 태장로 73 (망포동,정석 그린프라자) 1층",37.2393257,127.0543271
화성상리점,경기도 화성시 봉담읍 샘마을1길 17-7 (상리) 샘마을길21,37.2184450,126.9509336
전북익산영등점,전북특별자치도익산시 고봉로30길 10 1층,35.9561353,126.9713204
이천마장점,이천시 중앙로 10번길 30 105호~106호,37.2507871,127.3569914
이천마장점,이천시 중앙로 10번길 30 105호~106호,37.2507871,127.3569914
서대구센트럴자이점,"대구광역시 서구 팔달로46길 20-8 (원대동3가) 402동 1층 1호 (원대동3가,서대구센",35.8905935,128.5538161
강릉교동점,강원특별자치도 강릉시 교동광장로 139 (교동),37.7644243,128.8803203
카페배곧센터점,"경기도 시흥시 배곧3로 96 (정왕동,M-플러스) 1층 110호,111호",37.3698189,126.7300526
김해안동푸르지오점,"경상남도 김해시 안동길 31 (안동, 김해푸르지오하이엔드 1단지)103호, 104호",35.2379759,128.9133350
DMC수색초교점,서울특별시 은평구 수색로20길 20-22 (수색동) DMC SK뷰아이파크포레 112호,,
배곧한라비발디점,"경기도 시흥시 배곧1로 27-16 (정왕동,한라비발디캠퍼스2차) 101,102호",37.3627494,126.7151139
충주연수롯데점,충청북도 충주시 예성로 392 (연수동) 1층,36.9911810,127.9343622
울산지웰자이점,울산시 동구 서부로 51,35.5255623,129.4296043
창원동읍점,경상남도 창원시 의창구 동읍 동읍로 11 (용잠리) 1층,35.2783208,128.6843343
전남광양용강점,전라남도 광양시 광양읍 기두5길 2 (용강리) 1층,34.9745795,127.6074405
다산센트럴파크점,"경기도 남양주시 다산중앙로82번길 80 1층 102호,103호,104호",37.6197761,127.1635690
충남부여점,충청남도 부여군 부여읍 석탑로 55 (구아리),36.2810529,126.9124477
경북안동용상점,경상북도 안동시 중평길 107-27 1층 101호,36.5558325,128.7509396
사천카이점,경상남도 사천시 사남면 항공로 162,35.0740968,128.0700998
광명중앙대병원점,경기도 광명시 덕안로104번길 17 (일직동) 광명역M클러스터 B128호 (일직동),37.4242146,126.8870632
아산신도브래뉴점,"충청남도 아산시 용화고길 90 (용화동,용화마을신도브래뉴아파트) 상가동 1층 105호",36.7725062,127.0123162
신도림역점,"구로구 경인로 661 신도림 1차 푸르지오 111호,111-1호",37.5100374,126.8883336
탄현제니스점,"경기도 고양시 일산서구 일현로 97-11 136, 137호(탄현동, 일산 위브더제니스)",37.6940172,126.7628568
세종첫마을점,세종특별자치시 노을3로 84,36.4793540,127.2553353
제주연오로점,제주특별자치도 제주시 연오로 88 (연동) 1층,33.4853269,126.5013952
포항초곡점,"경상북도 포항시 북구 흥해읍 초곡지구로58번길 52 (초곡리,초곡삼구트리니엔시티) 101호, 102호",36.0985150,129.3339840
진영휴게소 부산방향점,경상남도 김해시 진영읍 하계로96번길 94-4 (우동리) 1층,35.2774167,128.7174738
이수역점,서울특별시 서초구 동작대로 70 (방배동) 1층,37.4828626,126.9823632
건대입구역점,서울 광진구 아차산로 225 단산화빌딩 1층,37.5409361,127.0684847
아산탕정점,충남 아산시 탕정면 한들물빛5로 11,36.7869993,127.0846160
루원SK점,인천광역시 서구 가정로 437 B2 211호,37.5234670,126.6712038
카페인창점,경기도 구리시 동구릉로 82 (인창동) 1층,37.6074462,127.1344798
갈매스칸센점,경기도 구리시 갈매순환로 188 오피스텔동 1층 AE01-0009호 (갈매동),37.6361677,127.1222475
대구본리점,대구광역시 달서구 장기로 221 (본리동) 1층,35.8433816,128.5361787
천안대원점,"충청남도 천안시 서북구 불당11로 101 (불당동,불당센타프라자) 103,104",36.8052250,127.1159201
평택지제센트럴파크점,경기도 평택시 동삭1로22번길 19-15 (동삭동) 104호,37.0203740,127.0932929
울산대병원점,울산광역시 동구 대학병원로 25 울산대병원 본관 1층,35.5200702,129.4289116
충대중문점,충청북도 청주시 서원구 내수동로 112 1층,36.6336672,127.4597565
하남유니온시티점,경기도 하남시 신장동 593 (하남유시티대명루첸리버파크) 16~20호,37.5452890,127.2141012
부산구서롯데캐슬점,부산광역시 금정구 금강로 479 (구서동),35.2500896,129.0876089
행신샘터점,"경기도 고양시 덕양구 중앙로557번길 11 (행신동,삼정플라자) 1층뚜레쥬르",37.6229648,126.8350340
오송파라곤점,충청북도 청주시 흥덕구 오송읍 오송생명7로 164,36.6215389,127.3175722
대구도남점,"대구광역시 북구 도남길 7 (국우동) 도남중앙로7길 20-4, 도남지구 21B-1L 1",35.9508615,128.5786121
춘천한숲시티점,"강원특별자치도 춘천시 안마산로 115 (퇴계동) E편한세상춘천한숲시티 상가A-2동 101,10",37.8558764,127.7293468
시흥장현점,경기도 시흥시 장곡1로 5 106-109호,37.3796621,126.7848140
통영죽림터미널점,경상남도 통영시 광도면 죽림4로 18 (죽림리) 1층,34.8855835,128.4164745
마곡수명산점,"서울특별시 강서구 수명로 68-35 (내발산동,웨스트엔드중정) 1층",37.5530057,126.8267826
가산센트럴점,"서울특별시 금천구 디지털로10길 69 (가산동,가산센트럴푸르지오시티) 1층 1동 101호",37.4753002,126.8908539
청주용암부영점,충청북도 청주시 상당구 중흥로 199 (용암동) 1층,36.6201601,127.5144244
거제사등점,경상남도 거제시 사등면 두동로 65 (사곡리) 2층,34.8961119,128.5684887
제주하귀하나로점,제주특별자치도 제주시 애월읍 하광로 15 (하귀1리) 102,33.4840855,126.4119787
부산초읍점,부산광역시 부산진구 새싹로 216 (초읍동) 1층,35.1754404,129.0488903
대구대봉점,대구광역시 남구 대봉로 128 (이천동) 1층,35.8501748,128.6037181
위례중앙점,"경기도 성남시 수정구 위례광장로 300 (창곡동,위례중앙역중앙타워) 108,109호",37.4734648,127.1427026
검단아라점,인천시 서구 푸르내2길 4 1층,37.5842562,126.7139286
카페강남대로점,"서울특별시 강남구 강남대로 524 (논현동,건일빌딩) 1층",37.5090367,127.0227869
무교점,"서울특별시 중구 남대문로9길 40 센터플레이스 114호, 115호 중 일부",37.5670959,126.9803692
대구센트럴점,"대구광역시 북구 대천로 100 (동천동,화성센트럴파크) 1층",35.9352860,128.5604705
가양역점,"서울특별시 강서구 양천로57길 16 (가양동,영보빌딩) 영보빌딩 1층",37.5633795,126.8525226
울산무거점,울산광역시 남구 대학로147번길 61 (무거동) 1층,35.5521664,129.2588598
홍천갈마점,"강원특별자치도 홍천군 홍천읍 갈마로 16 (갈마곡리,주공1차아파트) 주공1차아파트 상가동 103호,",37.6924017,127.8986258
공주신관제일점,충청남도 공주시 번영1로 72 (신관동) 1층,36.4734333,127.1358078
검단신도시점,"인천시 서구 이음5로 20 110,111호 (원당동, 연세프라자8차)",37.5937415,126.7099313
대구달성공원역점,대구 중구 달성로 123 달성파크푸르지오힐스테이트 상가 506동 102호,35.8768155,128.5800575
대전신탄진대청점,대전광역시 대덕구 대청로 38 1층,36.4520612,127.4327225
인천가좌점,"인천광역시 서구 장고개로 319 (가좌동,진주아파트) 1층",37.4922274,126.6857205
부산동의대역점,부산광역시 부산진구 가야대로 538 (가야동) 가야롯데캐슬 상가2동 108호,35.1529648,129.0309735
광주봉선점,광주광역시 남구 봉선중앙로 70-1,35.1271648,126.9114001
경남합천점,경상남도 합천군 합천읍 옥산로 126 (합천리),35.5673051,128.1688722
구미형곡제일점,경상북도 구미시 신시로 73 (형곡동) 경상북도 구미시 형곡동 144-5 1층. 現새서,36.1144377,128.3387054
목포하당중흥점,전라남도 목포시 비파로 96 (상동) 1층,34.8068665,126.4249933
대전장대점,대전광역시 유성구 문화원로 2 (장대동),36.3617778,127.3368140
칠곡구암점,대구광역시 북구 구암로 150 (구암동) 1층,35.9314900,128.5571018
광화문경희궁의아침점,"서울특별시 종로구 사직로8길 34 (내수동,경희궁의아침 3단지) 1층",37.5738725,126.9718472
전북순창점,전북특별자치도 순창군 순창읍 경천1로 34,35.3728503,127.1363885
동탄지스타점,경기도 화성시 동탄기흥로353번길 100 (오산동) 지스타프라자 107~108호(오산동),37.1878637,127.0855999
대전서구만년점,대전광역시 서구 만년남로 10,36.3661843,127.3769329
구미원평점,경상북도 구미시 구미중앙로21길 21 (원평동) 1층,36.1287640,128.3366998
용산리첸시아점,"서울특별시 용산구 백범로 341 (원효로1가,리첸시아 용산) 1층",37.5383556,126.9678941
삼성바이오로직스점점,"인천광역시 연수구 송도바이오대로 300 (송도동,삼성바이오로직스) 삼성바이오로직스",37.3683817,126.6602563
부산기장동부점,부산광역시 기장군 기장읍 차성동로 108,35.2473373,129.2170465
경북대병원점,"대구광역시 중구 동덕로 130 (삼덕동2가,경북대학교병원) 경북대학교병원새마을금고직영",35.8662525,128.6047030
계양작전점,인천광역시 계양구 장제로 672 (작전동) 109호,37.5278095,126.7338029
전북부안점,전북특별자치도 부안군 부안읍 석정로 199 (동중리) 1층,35.7278947,126.7374441
다산메인타워점,경기 남양주시 다산중앙로82번안길 118,37.6120172,127.1645873
세브란스병원점점,"서울특별시 서대문구 연세로 50-1 (신촌동,신촌세브란스병원) 본관 3층",37.5623446,126.9408265
한림대성심병원점,"경기도 안양시 동안구 관평로170번길 22 (평촌동,한림대학교성심병원) 1층",37.3917575,126.9620529
판교대장점,경기도 성남시 판교대장로 7길 6-32,37.3710619,127.0691306
아산배방농협연화점,충청남도 아산시 배방읍 세교중앙1길 78-1,36.7811686,127.0922571
자양점,서울시 광진구 능동로 50 이튼타워리버2차 108호,37.5356631,127.0693472
화정덕양구청점,경기도 고양시 덕양구 화중로104번 24 (송화빌딩) 1층 108호,,
동천동문점,"경기도 용인시 수지구 동천로 58 (동천동,빌프라자) 105,106호",37.3405055,127.0967479
논산반월점,충청남도 논산시 해월로 154 (반월동) 1층,36.2042457,127.0846366
구로지타워점,"서울특별시 구로구 디지털로26길 38 (구로동,G-TOWER) 1층",37.4798724,126.8953622
전남장흥점,전라남도 장흥군 장흥읍 토요시장1길 9-1 (예양리) 1층,34.6736962,126.9022329
조치원욱일점,세종특별자치시 조치원읍 행복10길 3,36.6035199,127.2912121
수원세류미영점,"경기도 수원시 권선구 정조로 432 (세류동,미영아파트) 1층",37.2479523,127.0143328
광주화정힐스테이트점,광주광역시 서구 화정로 220 1층,35.1458437,126.8812430
울산삼산점,"울산광역시 남구 삼산중로48번길 13 (삼산동) 1층,",35.5383463,129.3372767
부산서대신역점,"부산광역시 서구 대티로 178, 106,107호 서대신동2가,대신해모로센트럴아파트",35.1109466,129.0102857
울산매곡점,울산 북구 신기3길 40,35.6464057,129.3537452
주안파크자이점,"인천광역시 미추홀구 인하로 221번길 6 1층 103호(주안동,다안빌딩)",37.4487197,126.6730074
춘천효자점,강원특별자치도 춘천시 공지로 240 (효자동) 1층,37.8639148,127.7374641
퇴계원점,경기도 남양주시 퇴계원면 퇴계원로 86 (퇴계원리) 1층,37.6539807,127.1439131
복현GS점,대구광역시 북구 검단로 12 (복현동) 1층,35.8989081,128.6155478
수원정자블루밍점,경기도 수원시 장안구 파장로 47 (정자동) 1층,37.3054780,126.9954580
동대구해모로점,"대구광역시 동구 동북로 340 1201동 1층 117호 (신암동, 동대구 해모로 스퀘어 웨스트",35.8894885,128.6258424
대구중동점,대구광역시 수성구 수성로 211 (중동) 1층,35.8443512,128.6123551
다올점,서울특별시 서초구 내곡동 1111,,
평촌학원가점,경기도 안양시 동안구 평촌대로 113 (호계동) AC프라자 1층 101호,37.3823389,126.9600192
창원대동백화점점,"경상남도 창원시 성산구 원이대로 730 (상남동,대동백화점) 1층",35.2203120,128.6907435
전북혁신도시점,전북특별자치도 완주군 이서면 출판로 46-5 (갈산리) 1층,35.8390641,127.0581796
월배삼정점,대구광역시 달서구 조암남로32길 40 (대천동) (대천동) 402동 1층 104호,35.8206866,128.5152945
전남담양점,전라남도 담양군 담양읍 죽향대로 1176,35.3107123,126.9816982
부평신일해피트리점,"인천광역시 부평구 원적로 295 (산곡동) 1층 111,112호",37.5048411,126.6991787
동탄역점,"경기도 화성시 동탄역로 150 (오산동) B112, 113호",37.1992829,127.0973562
해운대수비교차로점,"부산광역시 해운대구 해운대로 407 (우동,신세계프라자) 1층",35.1678259,129.1406828
여수쌍봉점,전라남도 여수시 쌍봉로 27-2 (학동) 1층,34.7667931,127.6590936
오산법원점,"경기도 오산시 궐리사로 64 (궐동,구꿈) 1층",37.1589019,127.0592813
대구신평리점,대구 서구 당산로 446 321동 2층 201호,35.8758639,128.5485040
통영한진로즈힐점,"경상남도 통영시 무전1길 16 (무전동,씨티빌딩) 1층",34.8612745,128.4222395
김해삼계가야점,경상남도 김해시 가야로38번길 4 (삼계동) 1층,35.2695025,128.8644254
평촌킴스점,"경기도 안양시 동안구 동안로 119 (호계동,킴스아울렛) 킴스클럽지하1층 (호계동)",37.3892104,126.9512232
인천시청점,인천광역시 남동구 구월로 81 (간석동) 1층,37.4572426,126.6995732
평촌킴스점,"경기도 안양시 동안구 동안로 119 (호계동,킴스아울렛) 킴스클럽지하1층 (호계동)",37.3892104,126.9512232
인천시청점,인천광역시 남동구 구월로 81 (간석동) 1층,37.4572426,126.6995732
반정아이파크캐슬점,"경기도 동탄지성로469번길 60 5단지 상가1동107호,108호,109호",37.2378000,127.0430185
군자역점,서울특별시 광진구 능동로 302,37.5565975,127.0795562
브레드텍인천점,"인천광역시 부평구 육동로 36 (부평동,오상자이엘빌딩) 2층",37.4885661,126.7257302
도봉구청점,"서울특별시 도봉구 마들로 657 (방학동,이에스에이아파트) 1층",37.6686013,127.0454750
수원역점,경기 수원시 팔달구 덕영대로 924 수원역,37.2656769,127.0000960
남양주호평효성점,경기도 남양주시 늘을1로 286 (호평동) 1층,37.6555960,127.2549564
경북청도점,경상북도 청도군 청도읍 청화로 139 (고수리) 1층,35.6449284,128.7415825
브레드텍점,"경기도 군포시 엘에스로 153-18 (산본동,L&C타워) 401호",37.3739598,126.9444997
충암점,서울특별시 서대문구 가좌로 141 (홍은동) 1층,37.5845093,126.9236236
해남군청점,전라남도 해남군 해남읍 군청길 13 (성내리),34.5729792,126.5984416
하나로클럽대전점,대전광역시 중구 대둔산로 199번길 43,36.2885908,127.3784461
서귀포동홍점,제주특별자치도 서귀포시 동홍중앙로 84 (동홍동) 1층,33.2580811,126.5722255
용인한숲시티점,"경기도 용인시 처인구 남사면 한숲로 123 (완장리,e편한세상용인한숲시티) 3BL 103,104호",37.1590779,127.1731579
용인양지점,"경기도 용인시 처인구 양지면 양지로 145 (양지리,밝은미소치과) 1층",37.2347432,127.2844706
양산신도시점,경상남도 양산시 양주로 94 양산신도시 청어람아파트 상가 1층,35.3330283,129.0332438
전주신일강변점,전북특별자치도 전주시 완산구 효자천변1길  28-0  (효자동1가),35.8002489,127.1141199
청주시청점,충북 청주시 상당구 중앙로 80 1층,36.6443561,127.4889239
마포홍대점,"서울시마포구 홍익로 10 서교푸르지오 상가동 105호, 146",37.5538000,126.9237000
영등포시장역점,"서울특별시 영등포구 국회대로50길 20 (영등포동7가,포레나영등포센트럴) 상가동 114호",37.5236016,126.9056745
남원하나로마트점,전북특별자치도 남원시 동문로 94,35.4139144,127.3865131
김포타운힐스점,"경기도 김포시 김포한강11로255번길 15 (운양동,김포한강이랜드타운힐스) 105호",37.6548241,126.6764006
봉담와우점,경기도 화성시 봉담읍 와우로 20 (와우리) 미래프라자 102~103,37.2152650,126.9690813
아산북수점,충청남도 아산시 배방읍 북수로 102,36.7736050,127.0719926
대구상인역점,대구광역시 달서구 월배로 220 (상인동) 1층,35.8185780,128.5375380
송도그린워크점,"인천광역시 연수구 아트센터대로97번길 30 (송도동,더샵그린워크1차) 1층",37.3989808,126.6414860
여수무선점,전라남도 여수시 무선중앙로 25 (화장동),34.7749369,127.6481962
강릉합동마트점,강원특별자치도 강릉시 경강로2224번길 12-1 (포남동) 1층,37.7608911,128.9069365
CJ푸드빌라운지점,"서울특별시 중구 마른내로 34 (초동,(주)케이티앤지을지로타워) 3층",37.5642426,126.9917013
부산당감점,부산광역시 부산진구 당감서로98번길 30 (부암동) 1층,35.1697382,129.0357901
제물포역점,인천광역시 미추홀구 수봉로 1 (숭의동) 1층,37.4659596,126.6564776
서산예천점,충남 서산시 예천7로 4-12(예천동) 1층,36.7672016,126.4474467
진량농협하나로마트점,경상북도 경산시 진량읍 공단11로 257-10 진량농협하나로마트 1층,35.8787841,128.8394816
통영무전점,"경상남도 통영시 무전8길 13-38 (무전동,진우하이빌 1차) 103호(무전동,진우하이빌",34.8580697,128.4278425
매교힐스테이트점,경기도 수원시 팔달구 효원로93번길 33 (매교동) 힐스테이트푸르지오수원 상가,37.2682663,127.0122722
제주애월점,제주특별자치도 제주시 애월읍 애월로 119 (애월리) 119,33.4646428,126.3201185
군산터미널점,"전북특별자치도 군산시 해망로 25 (대명동,일미회관) 1층",35.9777488,126.7239119
청주내덕중앙로점,충청북도 청주시 청원구 중앙로 209 1층,36.6558902,127.4877833
천안성성신도시점,충청남도 천안시 서북구 성성6로 51 (성성동) 1층,36.8417527,127.1254968
수인파트너스(발산)점,"서울특별시 강서구 강서로52길 50 (내발산동,대성빌딩) 대성빌딩 6층",37.5574775,126.8408995
수인파트너스점,"경기도 성남시 중원구 성남대로 1139 (성남동,한일타워) 11층 1101호(한일타워)",37.4314060,127.1287388
세종보람점,"세종특별자치시  남세종로 462 (보람동,위너스타워) 1층",36.4768834,127.2888411
인천향촌점,"인천광역시 남동구 만수서로 52 (만수동,쓰리제이프라자) 1층",37.4614552,126.7317473
함안칠원점,경상남도 함안군 칠원읍 용산2길 67 (용산리) 1층,35.3096398,128.5148999
양산사송점,경상남도 양산시 동면 내송큰들1길 29 1-2층 일부,35.3193682,129.0669801
파주운정가람점,경기도 파주시 가람로 47,37.7344118,126.7553295
동선브라운스톤점,"서울특별시 성북구 아리랑로5길 25 (동소문동7가,브라운스톤 동선아파트) 상가 1층",37.5963300,127.0138004
송도아트윈점,"인천광역시 연수구 인천타워대로 253-25 (송도동,아트윈푸르지오) 1츨",37.3924938,126.6317143
수원천천푸르지오점,경기도 수원시 장안구 정자천로13번길 15 (천천동) 1층,37.2894592,126.9786054
포항법원대로점,경상북도 포항시 북구 신덕로 262(양덕동) 1층,36.0881748,129.3877922
양주광적점,경기도 양주시 광적면 가래비12길 2 (가납리) 1층,37.8256250,126.9841259
진주이현웰가점,"경상남도 진주시 진주대로 1319 (이현동,이현하이클래스웰가) 103~104호",35.1942109,128.0593100
양주옥정고점,"경기도 양주시 옥정로7길 9-5 옥정동) 케이타워 108, 109호",37.8278737,127.0912871
시흥은계로데오점,"경기도 시흥시 은계번영길 1 (은행동,태산W타워) 114,115호",37.4366407,126.8016279
제천하소로점,충청북도 제천시 하소로 42 (하소동) 1층,37.1400317,128.1991134
부산용호메트로점,"부산광역시 남구 분포로 61 빌리브센트로 A동 1층 A140, A141호 (용호동)",35.1312916,129.1119057
남춘천점,강원특별자치도 춘천시 행촌로 27 (퇴계동) 1층,37.8593884,127.7239046
부산다대점,부산광역시 사하구 다대로 582 (다대동) 1층,35.0545878,128.9703820
종로점,"서울특별시 종로구 종로 62 (종로2가) 1층, 2층",37.5699434,126.9842995
행신무원점,"경기도 고양시 덕양구 화신로 33 (행신동, 무원마을2단지아파트)",37.6161521,126.8378587
매일산업강원점,"강원특별자치도 원주시 봉화로 22 (단계동,더파크타워) 5층 501호",37.3462366,127.9287950
매일산업화정점,"경기도 고양시 덕양구 화중로104번길 26 (화정동,한솔타워) 3층 302호, 303호",37.6357778,126.8325480
대구내당점,대구광역시 서구 달구벌대로361길 1 (내당동) 대구 N타워 1층,35.8597008,128.5616659
강서증미역점,"서울특별시 강서구 양천로 570 (등촌동) NH농협타워 1층, 110호",37.5567284,126.8620105
암사라인점,"서울특별시 강동구 고덕로 53 (암사동,라인아파트) 1층",37.5549824,127.1311515
마산마린애시앙점,"경상남도 창원시 마산합포구 가포로 88 (월영동,삼공운수) 1층",35.1763096,128.5629459
숙대입구점,"서울특별시 용산구 청파로 285 (청파동2가) 1층,2층",37.5451010,126.9702829
간석역점,"인천광역시 미추홀구 주안로 226 (주안동,더월드스테이트) 1층 114,114-1호",37.4629017,126.6953334
광주농협장지점,경기도 광주시 순암로 110 (장지동) B1층,37.3954670,127.2378398
단대오거리점,경기도 성남시 중원구 산성대로372번길 3 (금광동) 1층,37.4452336,127.1575293
대전월평계룡점,대전광역시 서구 월평로 46 1층,36.3559899,127.3620867
카페수원호매실점,경기도 수원시 권선구 금곡로102번길 55 (금곡동) 1층,37.2718887,126.9421057
모란역점,"경기도 성남시 중원구 성남대로 1132 (성남동,우보빌딩) 102,103호",37.4309475,127.1298465
양산북정점,"경상남도 양산시 북정로 27 (북정동,TOUS) 1층",35.3589792,129.0433357
하남신장사거리점,"경기도 하남시 신평로 45 (신장동,SN타워) 1층",37.5379661,127.2043444
세종해밀점,"세종특별자치시 해밀3로 51 스카이허브 107호, 108호 1층",36.5290997,127.2650247
카페응암점,서울특별시 은평구 응암로 277,37.5965573,126.9191670
판교파미어스몰점,경기도 성남시 수정구 창업로 17 (시흥동) 파미어스몰 103-2,37.4121798,127.0978547
제주한경점,제주특별자치도 제주시 신한로 1길,33.3501324,126.1833804
창동동아점,"서울특별시 도봉구 노해로69길 97 (창동,동아청솔아파트) .",37.6568344,127.0493611
카페서현역점,"경기도 성남시 분당구 황새울로 332 (서현동,분당문화센터) 1층",37.3855330,127.1223318
해운대중동점,부산시 해운대구 좌동순환로 10 1층,35.1674792,129.1676266
구리인창삼보점,"경기도 구리시 건원대로 56 단지상가동 1층 118호 (인창동,삼보아파트)",37.6070574,127.1407155
대전월평선사점,대전광역시 서구 청사로 128 (월평동) 1층,36.3594533,127.3778676
창원성원점,"경상남도 창원시 성산구 가음로15번길 52 (남양동,성원2차아파트) 상가동 107, 108호",35.2128445,128.7032579
평택에이스고덕점,경기도 평택시 고덕면 고덕중앙로 290 (여염리) 에이스더 퍼스트 고덕 101~102호,37.0457082,127.0529950
청주산남점,충청북도 청주시 서원구 산남로 75 (산남동) 1층,36.6108643,127.4657149
아산축협하나로마트점,충남 아산시 온천대로 1721 1층,36.7764336,127.0286553
양산물금신도시점,경상남도 양산시 물금읍 야리로 15 (가촌리) 101호,35.3179054,129.0005491
여수웅천롯데캐슬점,전라남도 여수시 웅천남7로 24,34.7394584,127.6783719
양평용문점,경기도 양평군 용문면 용문로371번길 2 (다문리) 1층,37.4855010,127.5945091
김포대곶점,경기도 김포시 대곶면 율생로 82 (율생리) 102호,37.6507478,126.5828382
인천신흥점,인천 중구 서해대로 464번길 7,37.4673150,126.6366437
청라시티프라디움점,"청라한내로 131 시티프라디움상가 104,105",37.5372185,126.6273119
카페부천역점,"경기도 부천시 부천로 11 (심곡동,해태쇼핑) 잼존 플라자 1층",37.4855538,126.7823188
평택고덕중앙점,경기도 평택시 함박산7길 31-5(고덕동) 1층,37.0384379,127.0341944
죽전역점,"경기도 용인시 수지구 포은대로 530 (죽전동,죽전역) 죽전역 내",37.3248590,127.1073927
마석월산점,"경기도 남양주시 화도읍 경춘로2290번길 6 (월산리,남양주월산사랑으로부영1단지) 상가2동 101호",37.6549190,127.3421639
홍제역점,"서울특별시 서대문구 통일로 지하 440-1 (홍제동,홍제역)",,
대구서구청점,"대구광역시 서구 국채보상로50길 20 (평리동,평리 푸르지오) 1층(구,핸즈커피)",35.8688385,128.5598098
도봉쌍문점,서울특별시 도봉구 도당로 2 (쌍문동) 1층,37.6584222,127.0353016
광주진월점,광주광역시 남구 서문대로 793 1층 104호,35.1301106,126.8983276
제주아라아이파크점,제주특별자치도 제주시 인다10길 22 (아라일동) 1층,33.4742594,126.5478560
대구월배점,대구광역시 달서구 조암남로 150 (대천동) 1층,35.8170660,128.5179784
분당수내역점,"경기도 성남시 분당구 백현로101번길 17 (수내동,초림프라자) 17 2필지 초림프라자 110호(수내",37.3774801,127.1125099
카페안산선부점,"경기도 안산시 단원구 선부광장1로 69 (선부동,산호한양아파트 상가동) 104,105",37.3363425,126.8125960
장현점,경기도 남양주시 진접읍 장현리 60-11 1층,37.7267161,127.1930150
전남함평점,전라남도 함평군 함평읍 영수길 175 (기각리) 1층,35.0638427,126.5199280
홍성삼성마트점,충청남도 홍성군 홍성읍 홍장북로 416,36.5919204,126.6693467
카페강동역점,"서울특별시 강동구 천호대로 1087 (천호동,진넥스빌Ⅲ) 1층",37.5361797,127.1327526
홍성삼성마트점,충청남도 홍성군 홍성읍 홍장북로 416,36.5919204,126.6693467
답십리사거리점,서울특별시 동대문구 전농로 84-1(답십리동) 1층,37.5724649,127.0576515
다산테라타워점,경기 남양주시 다산지금로 202 1층 R01-0111호~R01-0114호(다산동),37.5956456,127.1722176
정관홈플러스점,"부산광역시 기장군 정관읍 정관5로 50 (매학리,정관홈플러스) 1층",35.3230710,129.1763507
삼례농협하나로마트점,"전북특별자치도 완주군 삼례읍 삼봉중앙로 15 (수계리,완주군보훈회관) 1층",35.9219748,127.1231609
지축역점,경기 고양시 덕양구 지축1로 73 1층 (JS스퀘어),37.6490954,126.9147630
해병대1사단점,경상북도 포항시 남구 오천읍 충무로 70 (용덕리) 2층,35.9751779,129.4183025
용인구성점,"경기도 용인시 기흥구 구성로 91 (언남동,뚜레쥬레) 1층",37.2944867,127.1196402
과천부림점,경기도 과천시 부림3길 6-8 (부림동) 1,37.4379128,126.9978586
충주주덕점,충청북도 충주시 주덕읍 신양로 124 (신양리),36.9734332,127.8006227
광주초월점,경기도 광주시 초월읍 경충대로1127번길 46 (쌍동리) 1층,37.3773414,127.2907716
청주모충점,충청북도 청주시 서원구 무심서로413번길 5,36.6283362,127.4822651
청주동남점,"충청북도 청주시 상당구 중고개로 140 (용암동,칸타빌더테라스1단지) 대원칸타빌 1차 상가 10",36.6173483,127.5196136
여주오학점,경기도 여주시 현암3길 1 (현암동) 1층,37.3078661,127.6417357
진천장관점,충청북도 진천군 진천읍 진광로 97-12 (장관리) 1층,36.8732069,127.4403936
상도래미안점,서울특별시 동작구 상도로37길 74 (상도동) 1층,37.4979134,126.9528582
광주518공원점,광주광역시 서구 상무민주로 97 (쌍촌동) 1층,35.1591763,126.8591311
부산개금백병원점,"부산광역시 부산진구 복지로 75 (개금동,부산백병원) 임재관 1층",35.1461809,129.0208926
중동래미안점,"경기도 부천시 신흥로276번길 15 (중동,래미안부천중동) 113동 103호,104호",37.5080564,126.7763718
포항오천점,경상북도 포항시 남구 오천읍 충무로 23 (용덕리) 1층,35.9763969,129.4122709
평택용죽점,경기도 평택시 용죽3로 25 1층(용이동),36.9939187,127.1248013
신용산역점,"서울특별시 용산구 한강대로30길 25 (한강로2가,아스테리움 용산) B1 131",37.5275037,126.9685280
카페송파황실점,"서울특별시 송파구 백제고분로 204 (삼전동,에스엔씨빌딩) 1.2층",37.5037548,127.0892549
영종하늘중앙점,"인천광역시 중구 하늘중앙로 225번길 11 1층 105,106호(중산동)",37.4878470,126.5592315
공주신월점,충청남도 공주시 번영1로 181 1층 (신관동),36.4739935,127.1475529
안산센트럴포레점,경기도 안산시 화랑로102 101-102,37.3263064,126.8003910
동탄호수공원점,"경기도 화성시 동탄순환대로 127-9 (산척동) 109호,110호,111호",37.1665533,127.1072808
경산중산점,경상북도 경산시 펜타힐즈2로 57 (중산동) 1층,35.8287306,128.7197706
군산산북점,전북특별자치도 군산시 칠성안2길 38 (산북동) 1층,35.9668659,126.6790820
잠실트리지움점,"서울특별시 송파구 석촌호수로 61 (잠실동,트리지움) 101호",37.5107806,127.0861952
신대방역점,서울특별시 관악구 난곡로 355-1 (신림동) 1층,37.4857529,126.9135637
카페양곡점,경기도 김포시 양촌읍 양곡2로80번길 70 (양곡리) 1층,37.6577783,126.6311528
경산정평점,경상북도 경산시 대학로 47 (정평동) 1층,35.8344462,128.7279488
미아테라스파크점,"서울특별시 강북구 삼양로27길 43 (미아동,위브테라스파크) 위브테라스파크 상가 내",37.6185505,127.0188472
부산송도점,부산광역시 서구 암남공원로 1 (암남동) 2층,35.0754971,129.0161231
광주동림점,광주광역시 서구 하남대로 654 (동천동) 1층,35.1716913,126.8640849
시흥능곡점,경기도 시흥시 장현능곡로 198 (능곡동) 1층,37.3690761,126.8119882
부평더샵점,"인천광역시 부평구 열우물로 90 (십정동) 부평더샵 상가 G동 117,118호",37.4770645,126.6979629
포항오천부영점,경상북도 포항시 남구 오천읍 남원로 86-22 (원리) 1층,35.9714042,129.4004643
춘천퇴계중앙점,강원특별자치도 춘천시 퇴계로 146 1층,37.8592816,127.7353309
옥동광명점,"경상북도 안동시 광명로 168 (옥동,신성타워) 신성타워 1층",36.5624686,128.7017119
수원역푸르지오자이점,경기도 수원시 팔달로 63,37.2743478,127.0020875
청주개신주공점,충청북도 청주시 서원구 경신로 40 (개신동) 1층,36.6206678,127.4465245
구미북삼점,경상북도 구미시 금오대로14길 4 (오태동) 742-5 1층,36.0712575,128.3496648
김천혁신점,"경상북도 김천시 해오름2로 3,1층(율곡동) 경상북도 김천시 해오름2로 3,1층(율곡동)",36.1195649,128.1753296
당진문예의전당점,충청남도 당진시 시청1로 71 (읍내동) 진산빌딩 102호,36.8908276,126.6396314
부산온천점,부산광역시 동래구 금강로62번길 3 (온천동) .,35.2147963,129.0773267
마산산호마린점,경상남도 창원시 마산합포구 회원천북길 505 (산호동) 1층,35.2086235,128.5824346
경산옥곡점,경상북도 경산시 경산로13길 3-3 (옥곡동) 1층,35.8147958,128.7314172
반포점,서울 서초구 잠원로3길 40 태남빌딩 1층,37.5082154,127.0036767
신월동점,서울특별시 양천구 남부순환로83길 48 진리등대교회 1층,37.5172990,126.8453916
서귀포시외버스터미널점,"제주특별자치도 서귀포시 일주동로 9217 (법환동,서귀포시외버스터미널) 9217",33.2489920,126.5082191
이천장호원점,"경기도 이천시 장호원읍 장감로 85 (장호원리,삼성명인내과) 1층",37.1177413,127.6319455
청주율량제일점,충청북도 청주시 청원구 율중로 11 (율량동) 1층,36.6610234,127.5070521
가평조은점,경기도 가평군 가평읍 가화로 42 (대곡리) 1층,37.8239870,127.5163175
전남장성점,전라남도 장성군 장성읍 영천로 162,35.2999029,126.7818741
창원봉곡점,"경상남도 창원시 의창구 원이대로285번길 11 (봉곡동,서울상가) 1층 103호",35.2433659,128.6517247
의정부로데오점,경기도 의정부시 시민로 122번길4 (의정부동) 1층,37.7382937,127.0485657
일산주엽역점,"경기도 고양시 일산서구 중앙로 1425 (주엽동,주엽역 삼부르네상스) 가동 제1층 103호,104호",37.6694880,126.7613860
수원정자점,경기도 수원시 장안구 대평로 80 (정자동) 정연메이져빌딩1층,37.2955355,126.9936193
수성교보점,"대구광역시 수성구 들안로 325 (수성동2가,롬바드아파트) 상가 102호 (수성동2가,",35.8590547,128.6169564
천안단대병원점,"충청남도 천안시 동남구 망향로 201 (안서동,단국대학교의과대학부속병원) 지하1층, 지상1층",36.8415904,127.1725750
마포성산점,서울특별시 마포구 월드컵북로 184 184 1층 (성산동),,
행당역점,서울특별시 성동구 행당로17길 36-6 (행당동) 1층,37.5614537,127.0325803
울산원예하나로마트점,"울산광역시 울주군 범서읍 장검길 10 (굴화리,울산원예농협하나로마트) 2층",35.5576485,129.2540428
진주망경점,경상남도 진주시 망경로 293-1 (망경동) 1층,35.1854976,128.0853038
서울역센트럴자이점,"서울특별시 중구 만리재로 175 (만리동2가,서울역센트럴자이) 서울역센트럴자이 401동",37.5549829,126.9631642
포항문덕점,경상북도 포항시 남구 오천읍 원동로 34 (원리) 1층,35.9660407,129.4031780
양산터미널점,경상남도 양산시 양산역1길 2 (중부동) 1층,35.3352145,129.0274515
김해내동점,경상남도 김해시 내외로77번길 22 (내동) 거북빌딩 1층,35.2366735,128.8662915
원주기업도시점,"강원특별자치도 원주시 지정면 신지정로 322 (가곡리) 322-1 113호,114호",37.3825827,127.8724962
부산대청로점,부산광역시 중구 대청로 71 (보수동1가) 1층,35.1032923,129.0276253
기흥역점,"경기도 용인시 기흥구 기흥역로58번길 10 (구갈동,기흥역센트럴푸르지오) 1층",37.2734234,127.1198039
논산하나로장군마트점,충청남도 논산시 중앙로 264 (취암동) 하나로장군마트,36.1908541,127.0991641
신정네거리점,"서울특별시 양천구 중앙로43길 14 (신정동,래미안목동아델리체) 상가A동 1층 108호,109",37.5186675,126.8519476
정릉풍림점,서울특별시 성북구 솔샘로25길20(정릉동) 상가1동 106호,37.6169754,127.0080858
울산남창점,울산광역시 울주군 온양읍 대운길 17 (운화리) .,35.4124580,129.2801793
영종하늘도시점,인천 중구 하늘중앙로 195번길 29 진로프라자 1층,37.4889847,126.5628385
대구진천역점,"대구광역시 달서구 월배로 71 (진천동,진천트윈팰리스) 102,103,109호",35.8143061,128.5221484
중앙대100주년관점,서울 동작구 흑석로 84 100주년기념관,37.5048875,126.9573779
카페교대역점점,"서울특별시 서초구 서초중앙로24길 19 (서초동,나라빌딩) 1층",37.4950499,127.0157133
계양구청점,"인천광역시 계양구 계산새로 71 (계산동,하이베라스빌딩) B동 113호 114호",37.5386558,126.7360621
충주용산호암점,충청북도 충주시 형설로 50 (호암동) 다동,36.9585190,127.9406263
안산그랑시티자이점,경기도 안산시 상록구 해양1로 199 (사동) 199 (사동) 1층 그랑시티자이,37.2820085,126.8283378
사랑모아범천점,부산광역시 부산진구 중앙대로 632 (범천동) 사랑모아빌딩 1층,35.1491563,129.0595503
시화세종점,"경기도 시흥시 함송로 21 (정왕동,굿모닝프라자) 109-110",37.3637725,126.7307158
청주영운제일점,충청북도 청주시 상당구 영운천로 29 (영운동) 1층,36.6172214,127.5022113
경산신대부적점,경상북도 경산시 압량읍 압독3로 15 (신대리) 1층,35.8411522,128.7641013
부산대학교점,부산광역시 금정구 금정로 72 (장전동) .,35.2309815,129.0867750
광주운암점,"광주광역시 북구 북문대로 88 (운암동,운암2차남양휴튼) 상가 102호",35.1786243,126.8768796
파주운정비발디점,"경기도 파주시 가람로116번길 128 (와동동,가람마을7단지 한라비발디) 아파트상가 101,1",37.7327078,126.7649304
영종운서점,"인천광역시 중구 넙디로 38 (운서동) 103호,104호",37.4833103,126.5079662
운정해오름점,"경기도 파주시 해올1길 7 104, 105호(다율동)",37.7338564,126.7300190
종암점,"서울특별시 성북구 종암로3길 18 (종암동,낙원빌딩) 1층",37.5933955,127.0350935
마포역점,"서울특별시 마포구 삼개로 16 (도화동,근신빌딩) 1층",37.5392866,126.9472778
익산제일점,"전북특별자치도 익산시 고봉로32길 40 (영등동,조이미용실) 1층",35.9595644,126.9754724
오산대역점,경기도 오산시 내삼미로 83 (수청동) 센타프라자 104호,37.1696464,127.0660073
산곡푸르지오점,인천광역시 부평구 마장로324번길 82 (산곡동) 1층,37.5063924,126.7081707
화정중앙점,"경기도 고양시 덕양구 화중로 32-31 (화정동,효원빌딩) 1층",37.6301157,126.8319646
백련산힐스테이트점,"서울특별시 은평구 백련산로2길 19 (응암동,백련산힐스테이트1차) (응암동,백련산힐스테이트1차",37.5920025,126.9253163
부산동래래미안점,"충렬대로 107번길 65, 317동 상가 113-114호",35.2108106,129.0713540
영천망정점,경북 영천시 망정1길 140 1층,35.9798955,128.9515687
의정부센트럴점,"경기도 의정부시 평화로 446(의정부동, 신영빌딩) 1층 101호",37.7316537,127.0483162
거제수양아이파크점,"경상남도 거제시 수양로 110 (양정동,거제2차IPARK) B405/406",34.8666314,128.6511065
천안백석점,충청남도 천안시 서북구 한들3로 35-17 (백석동) 1층,36.8265519,127.1222092
의정부민락점,"경기도 의정부시 오목로 205번길 39(민락동) 1층 111호, 112호",37.7454981,127.0964879
전주만성점,전북특별자치도 전주시 덕진구 만성중앙로 54-47 (만성동),35.8416184,127.0772250
대구두산점,대구광역시 수성구 청수로24길 59 (두산동) 101호,35.8372680,128.6214240
순천왕지유심천점,전남 순천시 조례동 1832-12,34.9542759,127.5322958
울산구영점,울산광역시 울주군 범서읍 대리2길 57 (구영리) .,35.5699365,129.2435948
송도호반에듀시티점,"인천광역시 연수구 랜드마크로 110 (송도동,호반베르디움EDUCITY) 116,117호",37.4152393,126.6158059
북위례점,경기도 하남시 위례학암로 19 (학암동) 1층,37.4880117,127.1588893
평촌자이아이파크점,경기 안양시 동안구 비산로 18 상가1동,37.4001180,126.9332766
광주양산호반점,광주광역시 북구 양산동 18-3번지호반리젠시빌아파트상가109호,35.2116579,126.8820458
진도점,전라남도 진도군 진도읍 남동1길 64,34.4804988,126.2650741
청주산남계룡점,"충청북도 청주시 서원구 산남로 22 (산남동,산남렉슬Ⅱ) 1층",36.6118514,127.4715870
울산언양교동점,울산광역시 울주군 삼남면 남상평2길 44 (교동리),35.5601285,129.1161945
광주농성영무점,광주광역시 서구 상무대로1147번길 7 101호,35.1539439,126.8862333
잠실푸르지오점,"서울특별시 송파구 올림픽로35가길 9 (신천동,잠실푸르지오월드마크) 119,120호",37.5173947,127.1036837
울산야음롯데점,울산광역시 남구 중앙로 22 (야음동) 1층,35.5236153,129.3187506
옥포점,대구광역시 달성군 옥포읍 돌미로 67 (교항리) 104호,35.7808017,128.4411825
제주도련점,제주특별자치도 제주시 연삼로 974 (도련이동) 1층,33.5149294,126.5891844
거여역점,"서울특별시 송파구 오금로 512 (거여동,거여역2차쌍용아파트) 1층 104호",37.4928771,127.1455380
개화산역점,"서울특별시 강서구 양천로10길 38 (방화동,신마곡벽산블루밍) 판매시설2동 106동 102호",37.5711923,126.8082842
발산마곡점,"서울특별시 강서구 공항대로 261 (마곡동,발산파크프라자) 1층",37.5591532,126.8365210
익산장신휴먼시아점,전북특별자치도익산시 오산면 군익로 411,35.9454565,126.9316517
내포하나로마트점,"충청남도 예산군 삽교읍 예목로 171 (신리,삽교농협내포농수산물종합유통센터) 충청남도 예산군",36.6723915,126.6854078
충북단양점,"충청북도 단양군 단양읍 삼봉로 293-1 (도전리,명진당) 1층",36.9831010,128.3689200
세종부강점,세종특별자치시  부강면 부강로 47 (부강리) 1층,36.5299395,127.3655041
전주하가점,"전북특별자치도 전주시 덕진구 가리내로 262 블루오션빌딩 102,103",35.8406258,127.1094805
나사렛국제병원점,"인천광역시 연수구 앵고개로 248 (동춘동,로얄빌딩) 1층뚜레쥬르",37.4083665,126.6712571
제주일도점,제주시 고마로 113,33.5044901,126.5418261
부산재송점,부산광역시 해운대구 재반로125번길 2 (재송동) 1층,35.1897380,129.1264728
제천장락주공점,충청북도 제천시 장락로 129 (장락동) 1층,37.1535585,128.2253554
천안두정포레나점,충청남도 천안시 서북구 북일로 6 (두정동) 1층,36.8317644,127.1525319
수성3가캐슬점,"대구광역시 수성구 명덕로 455 (수성동3가,수성3가롯데캐슬아파트) 101동 113호",35.8562366,128.6199470
광주첨단대라수점,광주광역시 광산구 첨단중앙로182번길 90 (쌍암동) 104호,35.2214474,126.8510590
김포풍무점,"경기도 김포시 풍무로 62 (풍무동) 101,102,103호",37.6009675,126.7216038
송도더테라스점,"인천광역시 연수구 센트럴로 415 (송도동,힐스테이트송도더테라스) 송도더테라스상가 126,",37.4105318,126.6269232
용현독정이점,인천광역시 미추홀구 인주대로 178 (용현동) 1층,37.4555302,126.6566102
마포용강점,"서울특별시 마포구 토정로31길 23 (용강동,래미안마포리버웰) 104호",37.5428480,126.9416859
광주수완장덕점,광주광역시 광산구 장덕동 1067 1층,35.1958793,126.8153350
테크노유가점,대구광역시 달성군 유가읍 테크노상업로4길 12 (봉리),35.6928166,128.4604993
김포마송점,경기도 김포시 김포대로 2231 104호 105호,37.6894455,126.5978505
부산광안점,부산광역시 수영구 광안해변로 282 (민락동) 1층,35.1558259,129.1245844
망우역점,서울특별시 중랑구 망우로 346 한일써너스빌1층,37.5972558,127.0912331
포항흥해점,경상북도 포항시 북구 흥해읍 흥해로 48-2 (남성리),36.1089910,129.3467460
사가정역점,"서울특별시 중랑구 사가정로 398 (면목동,JS빌딩) 서울특별시 중랑구 면목동 611-5",37.5802856,127.0888289
성남복정점,"경기도 성남시 수정구 성남대로1390번길 5 (복정동,나라빌딩) 1층",37.4541815,127.1272560
양산통도사점,경상남도 양산시 하북면 월평로 36,35.4950951,129.0870264
카페대치점,서울시 강남구 도곡로 446 1층,37.4980728,127.0593960
장유팔판마을점,경상남도 김해시 덕정로 95 (관동동) 105호(관동동),35.1798976,128.7957102
이마트통일동산점,경기도 파주시 탄현면 사슴벌레로73번길 51 (법흥리) 이마트에브리데이,37.7802665,126.6985386
대구연경점,"대구광역시 동구 동화천로77길 2 (지묘동,다올빌딩) 1층",35.9420282,128.6309869
부천복사골점,"경기도 부천시 장말로 102 (상동,반달마을삼익아파트) 110호",37.4934828,126.7524330
화성시청점,경기도 화성시 남양읍 시청로 115 1층,37.2007001,126.8262755
광주수완롯데점,광주광역시 광산구 장신로 82 (장덕동) 1층,35.1904601,126.8187750
대청역점,"서울특별시 강남구 일원로 37 (일원동,하나은행 일원중앙) 1층",37.4904845,127.0812484
청주남문점,"충청북도 청주시 상당구 남사로 137 (남문로2가,연합비뇨기과의원) 1층",36.6323045,127.4905610
부천순천향병원점,"경기도 부천시 조마루로 170 (중동,순천향대학교부천병원) 지하 1층",37.4986998,126.7629626
대전용운포레점,대전광역시 동구 용운로 172 (용운동) 1층,36.3277268,127.4613715
동대전하나로마트점,"대전광역시 동구 계족로 63 (인동,동대전농협)",36.3203034,127.4430379
방이역점,"서울특별시 송파구 양재대로72길 5 (오금동,올림픽파크센트레빌) 101-1",37.5103522,127.1276172
분당두산타워점,"경기도 성남시 분당구 정자일로 155 (정자동,분당두산타워) N동 지하 1층",37.3640680,127.1053673
광장힐스테이트점,"서울특별시 광진구 아차산로 537-17 (광장동,광장힐스테이트) 1층",37.5435100,127.0996819
제천비둘기점,충청북도 제천시 청전대로 167-1 (청전동),37.1519766,128.2159982
김해외동점,경상남도 김해시 금관대로 1212 (외동) 1층,35.2345075,128.8549174
강동강일점,"서울특별시 강동구 아리수로93나길 38 (강일동,아이메디컬) 114-115호",37.5719496,127.1739317
제주화순점,제주특별자치도 서귀포시 화순로 119,33.2462473,126.3335435
수락산역점,"서울특별시 노원구 동일로 1700 (상계동,토마토파르코) 1층",37.6801699,127.0558491
포항유강점,경상북도 포항시 남구 연일읍 유강길17번길 13-1 (유강리) A동 1층,36.0042090,129.3177695
경남의령점,경남 의령군 의령읍 행복로 8,35.3203896,128.2692615
인하대역점,인천광역시 미추홀구 독배로317번길 29 (용현동) 1층,37.4477848,126.6468506
구미문성점,경상북도 구미시 고아읍 문성로 34 (문성리) 문성2지구 도새가발구역1B-2L 1층,36.1531224,128.3466256
천안쌍용동일점,충청남도 아산시 배방읍 장재로 62 (장재리) 1층,36.7856866,127.1131501
순천조례골드점,"전라남도 순천시 태봉길 31, 211동 1층",34.9594438,127.5235625
창원상남광장점,"경상남도 창원시 성산구 마디미로37번길 3 (상남동,신우드림타운) 106호",35.2212405,128.6839026
청주비하계룡점,충청북도 청주시 흥덕구 2순환로1168번길 26 (비하동) 1층,36.6306707,127.4249335
세종아름점,"세종특별자치시  보듬3로 143 (아름동,대영프라자) 105호",36.5116275,127.2436211
경남함안점,경남 함안군 가야읍 가야로 82,35.2779610,128.4102369
청주성화중앙점,"충청북도 청주시 서원구 장전로 11 (성화동,성화휴먼시아4단지) 103, 104호",36.6179698,127.4510881
광주백운점,광주광역시 남구 독립로 18 1층,35.1351838,126.9017852
평택서정점,경기도 평택시 점촌로19번길 60 (서정동),37.0660905,127.0567923
서충주신도시점,충청북도 충주시 중앙탑면 원앙4길 21 (용전리) 1층,37.0178081,127.8278139
전주인후점,전북특별자치도 전주시 덕진구 무삼지로 6 (인후동1가) 뚜레쥬루 전주인후,35.8265684,127.1662762
충주호암신도시점,"충청북도 충주시 호암수청1로 47 (호암동) 103호, 104호",36.9569411,127.9252452
제주이도베라체점,제주특별자치도 제주시 승천로 83,33.4916544,126.5437049
회기역점,"서울특별시 동대문구 이문로 37 1층 102호 (회기동, 회기역 한일베라체캠퍼스)",37.5908164,127.0561285
창원중동점,경상남도 창원시 의창구 평산로207번길 4 (서상동) 1층,35.2601806,128.6258792
녹번역점,서울특별시 은평구 은평로 240 (응암동) 1층,37.5996241,126.9347135
도봉한신점,서울특별시 도봉구 도봉로180나길 34 (도봉동),37.6837813,127.0495900
대구범물점,"대구광역시 수성구 지범로 175 (지산동,지산빌딩) 1층",35.8219093,128.6389890
충남청양점,충청남도 청양군 청양읍 중앙로7길 36 (읍내리) 1층,36.4508515,126.7990612
대구효성점,대구시 남구 신촌2길 3 (봉덕동),35.8382948,128.6014246
양평공흥점,"경기도 양평군 양평읍 시민로 68, 1층",37.4907628,127.4992234
포항중앙점,경상북도 포항시 북구 중앙로 288 (상원동) 1층,36.0384084,129.3659688
일산중산마을점,경기도 고양시 일산동구 중산로 252 (중산동) 1층,37.6943371,126.7810489
울산송정점,"울산광역시 북구 박상진13로 20 (송정동) 1층 108,109호",35.6025819,129.3640463
분당서울대병원점점,"경기도 성남시 분당구 구미로173번길 82 (구미동,분당서울대학교병원) 1동 지하1층",37.3516694,127.1234065
묵동자이점,서울특별시 중랑구 동일로 932,37.6138821,127.0776975
인천효성점,인천광역시 계양구 봉오대로 613 104호(효성동),37.5307918,126.7171160
평촌어바인퍼스트점,경기도 안양시 동안구 경수대로 567 (호계동) 풍천빌딩 1층,37.3733211,126.9572354
용인흥덕점,"경기도 용인시 기흥구 흥덕중앙로 55 (영덕동,리써밋타워) 113호,114호",37.2766312,127.0730898
향남2지구점,경기도 화성시 향남읍 상신하길로298번길 7-29 (하길리),37.1143487,126.9126023
천안청당점,"충청남도 천안시 동남구 청당4로 60 (청당동,청당동한양수자인블루시티) (청당동300-5) 1층",36.7782250,127.1513596
김포향산점,경기도 김포시 고촌읍 상미1로 7 (힐스테이트리버시티2단지 근린생활시설(나)동 B11,37.6192956,126.7461280
대전을지대병원점,"대전광역시 서구 둔산서로 95 (둔산동,을지대학병원) 지하1층",36.3553098,127.3819888
부산괴정역점,부산광역광역시 사하구 낙동대로 225-1,,
일산백마점,"경기도 고양시 일산동구 일산로 208 (마두동,한일파킹타운) 101,102호",37.6549596,126.7901967
광주서방점,광주광역시 북구 동문대로 2 (풍향동) 1층,35.1649538,126.9198748
명륜2차아이파크점,부산광역시 동래구 시실로24번길 5 (명륜동) 1층,35.2164418,129.0864026
병점중심상가점,"경기도 화성시 효행로 1068 (병점동,리더스프라자) 104~106호",37.2147322,127.0438480
대구가톨릭대학교의료원점,"대구광역시 남구 두류공원로17길 33 (대명동,대구가톨릭의과대학병원) 지하 층",35.8436078,128.5679969
배명사거리점,서울특별시 송파구 백제고분로 275,37.5027812,127.0973444
대산하나로마트점,충청남도 서산시 대산읍 충의로 2001 (대산리) 대산하나로마트 1층,36.9424558,126.4287625
광명아울렛점,"경기도 광명시 하안로287번길 8 (하안동,뉴코아아울렛) 뉴코아아울렛 지하 1층",37.4612163,126.8798937
광주탄벌점,경기도 광주시 포돌이로 4 (탄벌동) 1층,37.4152174,127.2507295
전남광양마동점,전라남도 광양시 사동로 203 1층,34.9549150,127.6924796
안양호계현대점,"경기도 안양시 동안구 경수대로 454 (호계동,유환프라자) 103호",37.3637488,126.9604027
부산해운대마린점,"부산광역시 해운대구 마린시티3로 37 (우동,한일오르듀) 1층",35.1555081,129.1466326
서울역사점,"서울특별시 용산구 한강대로 405 (동자동,서울역(철도역)) 서울역사 2층",37.5548376,126.9717326
부산용당점,부산광역시 남구 유엔평화로 143 (용당동) .,35.1235958,129.0972166
경주금장점,경상북도 경주시 현곡면 용담로 174 (금장리) 109호,35.8675403,129.2036302
장안교점,서울특별시 동대문구 사가정로 229 (장안동) 1층,37.5789469,127.0705533
옥천양수점,"충청북도 옥천군 옥천읍 양수로 23-7 (양수리) 101,102호",36.3001369,127.5620615
창원유니시티점,"경상남도 창원시 의창구 중동로 60 (중동,창원중동유니시티4단지) 상가 113호",35.2547940,128.6290356
광주효천블랙데이점,광주광역시 남구 효우로 200 (행암동) 블랙데이 1층,35.1019593,126.8943347
부산명장점,부산광역시 동래구 반송로339번길 17 (명장동) 1층,35.2093249,129.1028213
부산부전역점,"부산광역시 부산진구 중앙대로 797 삼정 그린코아 더시티 1층, 103호",35.1631853,129.0629250
고촌캐슬파밀리에점,"경기도 김포시 고촌읍 태리로 236 김포캐슬앤파밀리엔시티 1단지 단지내 상가 109,110",37.5938575,126.7565797
성남하나로마트점,"경기도 성남시 분당구 성남대로43번길 11 (구미동,농수산물종합유통센터) 1층",37.3387642,127.1066681
창동역점,서울특별시 도봉구 노해로63길 84-10 (창동) 1층,37.6524152,127.0466679
창원대방점,"경상남도 창원시 성산구 창이대로881번길 9 (대방동,다성빌딩)",35.2072394,128.7079837
율하2지구점,"경남 김해시 장유동874-1 103호 장유동, 슈가빌딩",35.1677761,128.8276822
두암미라보점,광주광역시 북구 군왕로 157 (두암동) 1층,35.1753651,126.9330353
포항창포점,경상북도 포항시 북구 창흥로 26 (창포동),36.0627062,129.3680546
울산다운점,울산광역시 중구 운곡길 1 (다운동) 1층,35.5563648,129.2752521
이천터미널점,경기도 이천시 이섭대천로 1200 외 1필지 이천터미널내 1층 (중리동),37.2773891,127.4469874
고덕그라시움점,"서울특별시 강동구 고덕로 353 (고덕동,고덕그라시움아파트(상가1동)) 102~104호",37.5571351,127.1645103
창원대산점,경상남도 창원시 의창구 대산면 주남로 540-15 (제동리) 1층,35.3316211,128.7082678
대전롯데점,대전광역시 서구 계룡로 633-0 국일빌딩1층 (탄방동),36.3390543,127.3928633
에스포항병원점,"경상북도 포항시 남구 희망대로 352 (이동,에스포항병원) 지하 1층",36.0348843,129.3314538
청주율량점,충청북도 청주시 청원구 율봉로 178 (율량동) 1층,36.6686481,127.4886258
카페별내미리내점,경기도 남양주시 별내5로5번길 61 (별내동) 1층,37.6523085,127.1160567
서청주파크자이점,"충청북도 청주시 흥덕구 청향로9번길 40-6 (비하동,엄지어린이집) 충청북도 청주시 청향로 9번길",36.6360544,127.4216294
구로디지털직영점점,"서울특별시 구로구 디지털로32길 79 (구로동,조영빌딩) 1층",37.4835336,126.8997792
순천선평점,전남 순천시 서면 선평리 234-5 1층,34.9857561,127.5036352
부산하단역점,부산광역시 사하구 낙동남로 1391 (하단동),35.1066535,128.9639426
순천연향3지구점,전남 순천시 연향동 1686-3,34.9339541,127.5167644
마산합포중앙점,"경상남도 창원시 마산합포구 3·15대로 192 (중앙동2가,중앙동메디칼) 1층",35.1952153,128.5671521
대전관저더샵점,"대전광역시 서구 관저로14번길 40 (관저동,비젼9) 대전광역시 서구 관저로14번길 40 비젼",36.2965842,127.3266916
제천고암점,충청북도 제천시 용두천로46길 35 (고암동) 1층,37.1587167,128.2208803
목포대성점,전라남도 목포시 청호로 96 (산정동) 1층,34.8011423,126.3795888
다산진건점,"경기도 남양주시 다산중앙로123번길 22-30 (다산동) 다산헤리움그랑비스타 2차 121,122,1",37.6254944,127.1521046
대구남산점,"대구광역시 중구 남산로7길 7 (남산동,남산역화성파크드림) 남산역화성파크드림 제302동 1",35.8582854,128.5817024
춘천후평점,강원특별자치도 춘천시 후석로 312 (후평동) 1층,37.8789722,127.7508984
제주한림점,제주도 제주시 한림읍 명랑로4길 27 1층,33.4123935,126.2682362
창원북면점,경상남도 창원시 의창구 북면 감계로110번길 59 (감계리) 1층,35.3017900,128.5931852
천안쌍용역점,충청남도 천안시 서북구 충무로 143-7 (쌍용동),36.7932605,127.1226094
경북영천점,경상북도 영천시 충효로 48 (문외동) 1층 (문외동),35.9718454,128.9349703
현풍테크노점,대구광역시 달성군 현풍읍 테크노상업로 46 (중리) (중리 489),35.6925845,128.4547317
충북광혜원점,"충청북도 진천군 광혜원면 장기길 92 (광혜원리,경희우리한의원)",36.9892811,127.4444840
청주터미널점,충청북도 청주시 흥덕구 풍산로 6 (가경동) 청주시외버스터미널 내 ,36.6253280,127.4316927
울산호계엘리야병원점,울산광역시 북구 호계로 285 (호계동) 1층,35.6288626,129.3505372
용인데이파크점,"경기도 용인시 수지구 성복2로 51 (성복동,데이파크) 데이파크B동 103,104호",37.3134799,127.0787721
올림픽공원역점,"서울특별시 송파구 양재대로 1222 (방이동,올림픽프라자) 제1층 30,31,32,33",37.5157290,127.1310643
마산중리점,경상남도 창원시 마산회원구 내서읍 광려천동로 28,35.2536398,128.5207492
부산명지더샵점,"부산광역시 강서구 명지국제7로 37 명지동,더샵 명지퍼스트월드 2단지",35.0989136,128.9060117
광주금호운천점,"광주광역시 서구 운천로 129 (쌍촌동) 화진빌딩 101,102호",35.1440171,126.8570706
양주옥정역점,"경기도 양주시 옥정로 226 (옥정동) 제일타워 106, 107",37.8217516,127.0921278
경주용황점,경상북도 경주시 용황구획4길 25 (용강동),35.8829723,129.2260555
옥련시장점,"인천광역시 연수구 독배로 41 (옥련동,인영빌딩) 1층",37.4244291,126.6443699
창동대우점,서울특별시 도봉구 덕릉로63가길 60 (창동) .,37.6430048,127.0374794
경남함양점,"경상남도 함양군 함양읍 운림길 24 (운림리,큐마트) 큐마트",35.5220380,127.7243085
포항자이점,"경상북도 포항시 남구 상도남로 7 (대잠동,포항자이) 상가1동 1층 1101-1102호",36.0081969,129.3431083
카페석남점,인천광역시 서구 가정로 246 (석남동) 105호,37.5067151,126.6725367
전남광양칠성점,"전남 광양시 광양읍 서평로 43, 1층(광양읍) 1층",34.9782136,127.5771519
울산문수아이파크점,울산광역시 남구 동산로 48 (신정동) 1층,35.5357844,129.3007870
대전도안봉명점,"대전광역시 유성구 계룡로132번길 10 (봉명동,도안센트럴프라자) 1층",36.3522386,127.3445723
군산디오션점,전북특별자치도 군산시 궁포3로 14 (조촌동) 1층,35.9768951,126.7417482
순천법원점,전라남도 순천시 왕지5길 11 (왕지동),34.9722003,127.5236029
경주동국대점,경상북도 경주시 동대로 6 (성건동),35.8554702,129.2062352
창원팔용아티움점,경상남도 창원시 의창구 창원대로397번길 11 (팔용동) 102호,35.2358849,128.6414092
잠실새내점,"서울특별시 송파구 올림픽로12길 48 (잠실동,씨밀레) 1층",37.5074326,127.0834868
경주안강점,경상북도 경주시 안강읍 비화동길 1 (안강리),35.9918930,129.2254864
동탄메타폴리스점,경기 화성시 동탄중앙로 200 202호,37.2027924,127.0688912
강동홈플러스점,"서울특별시 강동구 양재대로 1571 (천호동,천호복합상업시설) 홈플러스 강동점 1층",37.5457146,127.1422553
의왕내손점,"경기도 의왕시 내손중앙로4 벨포레스퀘어 G104,G105호",37.3890791,126.9768623
제주이도이동점,제주특별자치도 제주시 중앙로 273 (이도이동) 1층 105호,33.4962689,126.5326731
천호역점,"서울특별시 강동구 천호대로 1027 (천호동,동원천호빌딩) 동원빌딩",37.5381742,127.1263458
홍성의료원점,충청남도 홍성군 홍성읍 조양로 229 (고암리) 1층,36.5999251,126.6750149
상월곡역점,"서울특별시 성북구 화랑로 186 (석관동,수정빌딩) 186-0",37.6074348,127.0510336
거창스카이점,"경상남도 거창군 거창읍 수남로 2233 (김천리,SKYCITY할인점) SKYCITY할인점내",35.6787058,127.9105779
대전도안상대점,대전광역시 유성구 상대동로 34 (상대동),36.3459899,127.3391908
광주문흥2호점,광주광역시 북구 서하로 389 (문흥동) 1층뚜레쥬르,35.1853706,126.9226842
염창역점,"서울특별시 양천구 공항대로 630 (목동,어바니엘) 1층",37.5465353,126.8747144
구미옥계점,경상북도 구미시 옥계북로 9 (옥계동) 890-4 1층,36.1387841,128.4185704
용인파머스마켓점,"경기도 용인시 처인구 금령로55번길 3 (김량장동,농협파머스) 용인농협 파머스마켓1층",37.2352646,127.2020880
여주대로데오점,경기도 여주시 세종로 278,37.2733644,127.6372412
김포구래점,"경기도 김포시 김포한강9로 80 (구래동) 101,102호",37.6441233,126.6260533
부산반송점,"부산광역시 해운대구 신반송로 193 (반송동,신정빌딩) 1층",35.2297839,129.1588736
김해중앙병원점,"경상남도 김해시 분성로 94-7 (외동,김해중앙병원) 2층",35.2308136,128.8574647
진부중앙점,강원특별자치도 평창군 진부면 경강로 3615-1,37.6374803,128.5596531
역삼역점,"서울특별시 강남구 테헤란로20길 9 (역삼동,동궁빌딩) 1층",37.4991952,127.0345593
인천동수역점,"인천광역시 부평구 경인로 883 (부평동,재현빌딩) 1층",37.4856788,126.7183600
문정법조단지점,"서울특별시 송파구 법원로11길 7 (문정동,문정현대지식산업센터1-2) 1층",37.4853545,127.1192266
여수죽림점,전라남도 여수시 소라면 죽림로 7 (죽림리) 1층,34.7615857,127.6395780
광주매곡점,광주광역시 북구 매곡로 85 (매곡동) 1층,35.1922648,126.8921426
산본역센트로점,"경기도 군포시 산본천로 56 (산본동,센트로601오피스텔) 114, 115호",37.3604095,126.9299949
광주선운점,광주광역시 광산구 선운중앙로 56 (선암동) 1층,35.1478422,126.7779922
이천송정점,경기도 이천시 증신로291번길 137 (송정동) 1층,37.2952566,127.4330591
구수동점,서울특별시 마포구 토정로 190 (구수동),37.5452510,126.9320471
상일동역점,서울 강동구 고덕로 390,37.5566264,127.1687802
대구매천점,대구광역시 북구 학정로 38 (태전동) 1층,35.9132387,128.5468820
포항쌍용점,경상북도 포항시 북구 중흥로 126 (죽도동) 1층,36.0158450,129.3528470
카페중곡점,서울특별시 광진구 능동로 373 (중곡동) 1층,37.5627358,127.0822860
동인천역점,"인천광역시 중구 자유공원로 3-12 (인현동,잇츠스킨,까까머리) 1층.2층",37.4748868,126.6306804
제주노형한라점,제주도 제주시 진군남4길 7-1,33.4760786,126.4808588
목포하당점,전라남도 목포시 원형로 44-2 (상동) 1층,34.7993967,126.4319106
카페수유역점,서울특별시 강북구 도봉로 322-1 (번동) 322-1,37.6366749,127.0247832
문래역점,"서울특별시 영등포구 문래로20길 14 (문래동3가,문래공원한신아파트) 한신상가 108호, 109",37.5175519,126.8930361
강릉포남동점,강원특별자치도 강릉시 하평길  46 (포남동),37.7700803,128.9136161
부산다대현대점,"부산광역시 사하구 다대로 473 (다대동,다대포현대아파트) 맘모스상가 1층",35.0611812,128.9783573
카페연신내점,"서울특별시 은평구 통일로 815 (대조동,성보빌딩) 1층",37.6164208,126.9233733
카페고양삼송점,경기도 고양시 덕양구 덕수천1로 64 (삼송동) 1층,37.6482454,126.8840290
여주터미널점,경기도 여주시 세종로 81 (홍문동) 1층,37.2906255,127.6352814
양산덕계두산점,경상남도 양산시 덕명로 57 (덕계동) 두산아파트 상가,35.3746856,129.1634598
예수병원점,전북특별자치도 전주시 완산구 서원로 365(중화산동1가)  서원로 365(중화산동1가),35.8143917,127.1332292
충남보령죽정점,충남 보령시 지장골길 79(죽정동) 1층,36.3591893,126.6023387
천안목천점,"충청남도 천안시 동남구 목천읍 충절로 869 (신계리) 104호, 105호",36.7721275,127.2075219
여수웅천점,전라남도 여수시 웅천중앙로 85 (웅천동) 1층,34.7481358,127.6762596
화순하나로마트점,전남 화순군 화순읍 쌍충로 74,35.0587937,126.9822225
대구금호점,대구광역시 북구 내곡로 71 (사수동) 사수동 793번지,35.9015540,128.5112836
영도미라주점,부산광역시 영도구 동삼로 89 (동삼동) 1층,35.0813817,129.0704996
헬리오시티점,"서울특별시 송파구 송파대로 345 (가락동) 1B동 1109호, 1110호, 1120호 (",37.4976183,127.1072604
전북도청점,"전북특별자치도 전주시 완산구 홍산남로 60 (효자동2가) 1층 103호, 104호",35.8155698,127.1083599
부산안락점,"부산광역시 동래구 안연로 75 (낙민동,스카이빌) 1층",35.1939162,129.0982974
부산문현금융단지점,부산광역시 남구 문현금융로 22 (문현동) 1층,35.1445979,129.0650759
카페역삼점,서울특별시 강남구 테헤란로8길 21 (역삼동) 강남화인빌딩 1층,37.4976095,127.0320213
진접반도점,"경기도 남양주시 진접읍 해밀예당3로 138 (금곡리,반도프라자) 109호",37.7215121,127.1949967
충북옥천점,"충청북도 옥천군 옥천읍 문장로 88-10 (장야리,소매점)",36.2975950,127.5756594
우장산역점,서울특별시 강서구 강서로 254 상가동 1층 116~117호,37.5484540,126.8367425
구미형곡중앙점,경북 구미시 형곡로 187 (형곡동),36.1068498,128.3365335
카페구월로데오점,"인천광역시 남동구 인하로 497-5 (구월동,푸른세상안과) 1층",37.4436053,126.7015922
가재울점,"서울특별시 서대문구 가재울미래로 2 (남가좌동,DMC파크뷰자이) 아파트상가 101",37.5728378,126.9176131
카페이태원역점,서울특별시 용산구 이태원로 199(이태원동),37.5348308,126.9962052
카페외대앞역점,서울특별시 동대문구 외대역동로 67 (휘경동) 1층,37.5944118,127.0643501
카페오금역점,"서울특별시 송파구 오금로 307 (오금동,르네상스빌) 1층",37.5034331,127.1266561
충남보령한내대로점,충청남도 보령시 작은오랏4길 15-22 (동대동) 충청남도 보령시 작은오랏4길 15-22 1,36.3473005,126.6058579
카페정읍수성점,전북특별자치도 정읍시 수성택지5길 24-8 (수성동) 1층,35.5810175,126.8554145
세종대평점,"세종특별자치시  한누리대로 2257 (대평동,판타지타워) 114,115호",36.4726172,127.2780049
미사강변점,"경기도 하남시 미사강변대로 70 (풍산동,해오름프라자) 104,105,106호",37.5561555,127.1874375
포천가산농협점,"경기도 포천시 가산면 선마로 233 (마산리,가산농협) 233",37.8474203,127.1875066
양산증산역점,경상남도 양산시 물금읍 야리3길 14 (가촌리),35.3121119,129.0100191
진해자은벚꽃점,경상남도 창원시 진해구 냉천로 164 (자은동) 1층,35.1557929,128.7143047
평택역사점,경기도 평택시 평택로 61 (평택동) 평택역,36.9925282,127.0858250
진해이동중앙점,"경상남도 창원시 진해구 진해대로 762 (석동,롯데마트) 543-5 진해미래쇼핑센터 1층",35.1582109,128.6987865
충주신연수점,"충청북도 충주시 연수동산로 2 (연수동,골드프라자) 1층",36.9827869,127.9422007
광주터미널점,광주광역시 서구 무진대로 932 광주유스퀘어 내 1층,35.1605461,126.8827227
양산평산점,"경상남도 양산시 평산로 39 (평산동,서해검도관) 1층",35.3815554,129.1507440
제주외도점,제주특별자치도 제주시 우정로 77 (외도일동) 1층,33.4858221,126.4310839
양평서종점,경기도 양평군 서종면 무내미길 46 (문호리) 1층,37.6033600,127.3525787
양산물금역점,"경상남도 양산시 물금읍 황산로 371 (물금리) 채움애비뉴 1층 107호,108호",35.3095663,128.9859290
한일병원점,"서울특별시 도봉구 우이천로 308 (쌍문동,한일병원) 1층",37.6461401,127.0291228
부평청천점,인천광역시 부평구 세월천로 51 (산곡동) 1층,37.5129284,126.7036368
구의1동점,"서울특별시 광진구 자양로18길 56 (구의동,거송빌딩) 1층",37.5379776,127.0866659
서울고속버스터미널점,"서울특별시 서초구 신반포로 194 (반포동,강남고속버스터미널) 경부선고속버스터미널 상가 1",37.5056800,127.0058468
미사역점,"경기도 하남시 미사강변동로 79 (망월동,미사역타워) 1층",37.5620421,127.1928471
전남고흥점,"전라남도 고흥군 고흥읍 터미널길 3 (남계리) 유진빌딩 102, 103호",34.6054348,127.2811394
부산사직점,"부산광역시 동래구 사직로 16 (사직동,사직역삼정그린코아더베스트2차) 209동,210동",35.1967295,129.0637771
삼성역점,"서울특별시 강남구 영동대로85길 17 (대치동,우정에쉐르) 1층",37.5068895,127.0622914
부산중앙대로점,부산 중구 중앙대로 145 내일투어 1층(대창동2가),35.1105561,129.0373570
천안불당신도시점,"충청남도 천안시 서북구 불당25로 192 (불당동) 1층 118,119호(불당동)",36.8182903,127.1089566
대전충남대병원점,"대전광역시 중구 문화로 282 (대사동,충남대학교병원)",36.3169080,127.4153630
잠실점,서울특별시 송파구 석촌호수로 142 (삼전동) 빈즈빌딩,37.5069644,127.0927695
광주첨단쌍암점,광주광역시 광산구 첨단중앙로 164(쌍암동),35.2199746,126.8422786
의정부신곡점,경기도 의정부시 동일로472번길 7 (신곡동) 1층,37.7304212,127.0595211
부산엄궁점,"부산광역시 사상구 엄궁로203번길 40 (엄궁동,송학빌딩) 1층",35.1288889,128.9718230
목포남악부영점,전라남도 무안군 삼향읍 남악5로72번길 4 (남악리),34.8118559,126.4715848
청주흥덕파크자이점,"충청북도 청주시 흥덕구 옥산면 오송가락로 1061, 101,102호",36.6761745,127.3891451
창원소답점,"경상남도 창원시 의창구 읍성로 77 (소답동) 102호, 103호",35.2651463,128.6264856
이화여대ECC점,"서울특별시 서대문구 이화여대길 52 (대현동,이화여자대학교) 이화여자대학교 ECC관B406",37.5617396,126.9472448
보성하나로마트점,전라남도 보성군 보성읍 현충로 92-42 (보성리),34.7672104,127.0819216
파주금촌역점,"경기도 파주시 새꽃로 203 (금촌동,백운빌딩) 1층",37.7657252,126.7749363
미가서창점,"인천광역시 남동구 서창남로 77 (서창동) 메인프라자 101호,102호",37.4258932,126.7482477
서울역KDB타워점,"서울특별시 용산구 한강대로 372 (동자동,센트레빌아스테리움서울) KDB 생명타워 지하 2",37.5513775,126.9736404
불광현대점,"서울특별시 은평구 불광로 60 (불광동,불광동라비앙프라자)",37.6122936,126.9321560
카페판교역점,경기도 성남시 분당구 분당내곡로 117 (백현동) 크래프톤타워 1층 106호,37.3942195,127.1122303
용마산역점,서울특별시 중랑구 면목로 245 (면목동),37.5749343,127.0850856
도청신도시점,경상북도 예천군 호명면 행복로 229 (경북도청신도시우방아이유쉘센트럴),36.5783659,128.4894466
홍성내포극동점,"충청남도 홍성군 홍북읍 신대로 33 (신경리,극동스타클래스센트럴) 상가동",36.6537959,126.6723698
세종소담점,"세종특별자치시  보람동로 14 (보람동,호려울마을8단지) 제상가5동 제1층 제503호",36.4789450,127.2969527
밀양미리벌점,경상남도 밀양시 미리벌중앙로5길 7 (삼문동) -,35.4835106,128.7479727
수원판타지움점,경기도 수원시 영통구 덕영대로 1566 (영통동) 판타지움몰 1층,37.2451296,127.0618145
마석라온점,"경기도 남양주시 화도읍 경춘보학1길 7 (녹촌리,남양주라온프라이빗4단지) 101호(라온프라이빗 4단",37.6510030,127.2969084
부개점,인천광역시 부평구 부개로 73 (부개동),37.5042602,126.7396742
경산하양점,"경상북도 경산시 하양읍 하양로 69 (금락리,크레용빌) 1층",35.9115293,128.8160732
면목점,서울특별시 중랑구 면목로 430 (면목동),37.5902738,127.0872886
동탄영천점,경기도 화성시 지산2길 4-12 1층,37.2060072,127.1120461
청주방서점,"충청북도 청주시 상당구 단재로 316 (방서동,청주센트럴자이) A동 111,112호",36.6002609,127.5011717
울산옥동본점점,울산광역시 남구 문수로335번길 5(목동),35.5356169,129.2902689
까치산점,서울특별시 강서구 강서로18길 33 (화곡동) 1층,37.5342568,126.8474577
청도휴게소(대구)점,경상북도 청도군 청도읍 하지길 59-50 (거연리) (주)케이알산업 청도(상)휴게소,35.5944462,128.7696649
청도휴게소(부산)점,경상북도 청도군 청도읍 하지길 59-49 (거연리) (주)케이알산업청도(하)휴게소,35.5953638,128.7668684
문래6가점,"서울특별시 영등포구 선유로13길 25 (문래동6가,에이스하이테크시티2) 1층",37.5189767,126.8862918
청주테크노폴리스점,"충청북도 청주시 흥덕구 송화로214번길 29 (송절동,테크노폴리스우미린) 우미린상가 101,102호(뚜",36.6681316,127.4589127
CJ ENM커머스부문점점,"서울특별시 서초구 과천대로 870-13 (방배동,(주)CJ오쇼핑)",37.4690705,126.9880020
연제이마트점,부산광역시 연제구 연수로 103 (연산동) 시청스마트더블유 아파트 1층,35.1754735,129.0821731
부산화명점,"부산광역시 북구 금곡대로 238 (화명동,롯데캐슬멤버스아파트) 롯데캐슬멤버스아파트 상가동",35.2294093,129.0128442
신림사거리점,서울특별시 관악구 남부순환로 1619-1 (신림동) 1층,37.4847143,126.9306817
부천옥길점,경기도 부천시 옥길로 56번길 24-22 옥길동,37.4621738,126.8188839
동탄나루마을점,"경기도 화성시 동탄솔빛로 51 (반송동,인창프라자) 107, 108",37.1936301,127.0730767
장유신문점,경상남도 김해시 장유로334번길 18 (신문동) -,35.1959824,128.8150184
아산터미널점,"충청남도 아산시 번영로 225 (모종동,아산시외버스터미널복합시설) 아산시외버스터미널內",36.7846407,127.0159009
광양중마사랑점,전라남도 광양시 오류2길 1 (중동) 103호,34.9360533,127.6960563
서귀포하나로마트점,제주특별자치도 서귀포시 516로 40 (토평동) 1층,33.2573688,126.5814290
삼성DSR점,"경기도 화성시 삼성전자로 1 (반월동,삼성전자(주)) 삼성DSR동 1층",37.2234547,127.0633657
여수학동점,전라남도 여수시 선소로 69 (학동) 1층,34.7589965,127.6672455
충남서천중앙점,"충청남도 서천군 서천읍 서천로 147 (사곡리,하영프라자) 하영프라자 1층",36.0812140,126.6867303
만촌무열로점,대구광역시 수성구 무열로 35 (만촌동) 만촌동 995-2,35.8620355,128.6477852
이츠마트석교점,대전광역시 중구 대종로224번길 28 (석교동),36.3097696,127.4433055
동해점,강원특별자치도 동해시 천곡로 49 (천곡동) 1층,37.5244186,129.1107133
아산테크노밸리점,"충청남도 아산시 둔포면 아산밸리중앙로 58-5 (석곡리,아산테크노벨리이지더원2단지아파트)",36.9229653,127.0559012
광주금남로점,광주광역시 동구 금남로 162-1 (금남로5가),35.1526779,126.9112117
역촌2동점,서울특별시 은평구 갈현로  81 (역촌동),37.6053183,126.9103195
대전버드내점,"대전광역시 중구 태평로 15 (태평동,버드내마을아파트) 주상가 108호",36.3179497,127.3887050
대전낭월점,대전광역시 동구 산내로 1317 (낭월동),36.2810621,127.4674689
창원무동점,경상남도 창원시 의창구 북면 무동로226번길 8 (무동리) -,35.3169521,128.5845517
대전노은월드코아점,"대전광역시 유성구 은구비로 36 (지족동,월드코아종합라이프상가) 1층",36.3756029,127.3189963
남산타운점,"서울특별시 중구 다산로 32 (신당동,남산타운) 상가5동120-3호",37.5500494,127.0097435
침산명성푸르지오점,"대구광역시 북구 침산로 153 (침산동,명성푸르지오) 269-10번지 명성푸르지오아파트",35.8893078,128.5900885
상계점,서울특별시 노원구 덕릉로 669,37.6573959,127.0746738
아산모종점,"충청남도 아산시 모종로22번길 7 (모종동,모종캐슬어울림1단지) 아파트 상가",36.7835381,127.0214404
천안불당프라디움점,"충청남도 천안시 서북구 공원로 176 프라디움 3차 단지내상가 5호,6호",36.7970961,127.0992362
매일산업송파1점,서울특별시 송파구 가락로 94 (석촌동),37.5007553,127.1067130
제천중앙점,충청북도 제천시 풍양로13길 14 (중앙로2가) 1층,37.1384922,128.2115526
당진기지시점,충청남도 당진시 송악읍 반촌로 98-1,36.9041296,126.6946043
동탄카림애비뉴점,"경기도 화성시 동탄대로시범길 134 (청계동,시범반도유보라아이비파크4.0) 지1층 0029호",37.1992157,127.1142338
독립문역점,서울시 종로구 통일로 250,37.5747345,126.9579560
카페복정역점,경기도 성남시 수정구 성남대로 1526(복정동),37.4660815,127.1267241
부산BIFC몰점,부산광역시 남구 문현금융로 40(문현동),35.1472602,129.0656311
연수우성2차점,인천광역시 원인재로 180,37.4117343,126.6846067
순천신대점,전남 순천시 향매로 77,34.9339769,127.5477995
구미확장점,경상북도 구미시 산동면 신당1로  24,36.1543678,128.4325311
향남성지점,경기도 화성시 향남읍 행정중앙2로 33,37.1300375,126.9191110
부산시민공원점,부산광역시 부산진구 새싹로 84(범전동),35.1645249,129.0540126
이마트오포신현점,경기도 광주시 문형산길 65,37.3636054,127.1638266
온수역북부점,서울시 구로구 부일로 15길 33,37.4943994,126.8329597
충주공판장점,충청북도 충주시 염밭로 118 118 충주공판장(교현동),,
용인죽전점,경기도 용인시 수지구 현암로 136,37.3315350,127.1244257
동래허브스카이점,부산광역시 동래구 중앙대로 1523(온천동),35.2208431,129.0855308
강변프라임점,"서울특별시 광진구 광나루로56길  29 110호 (구의동, 프라임프라자)",37.5373140,127.0979850
제주영어도시점,제주도 서귀포시 대정읍 에듀시티로 102,33.2876860,126.2785482
아산배방모산점,"충남 아산시 배방읍 배방로 58-40 한성빌딩 108호, 109호",36.7711673,127.0507105
삼육병원점,서울특별시 동대문구 망우로 82,37.5879909,127.0653066
카페답십리역점,서울시 동대문구 천호대로 281,37.5674196,127.0525642
제주중문점,제주특별자치도 서귀포시 천제연로 198 1층(중문동),33.2514682,126.4257677
분당느티마을점,"경기도 성남시 분당구 느티로  71 101호 (정자동, 현대프라자)",37.3687763,127.1125857
롯데마트부평역점,인천광역시 부평구 광장로 16 부평민자역사 롯데마트 3층,37.4895676,126.7233507
영주중앙점,경상북도 영주시 중앙로 78-0  (하망동),36.8221215,128.6246686
카페서판교점,경기도 성남시 분당구 운중로 249 (판교동),37.3896478,127.0906976
서귀포점,제주도 서귀포시 중정로 56-1,33.2474901,126.5624570
신공항신도시점,"인천광역시 중구 흰바위로 41 105호 (운서동, 영종에어포트)",37.4927430,126.4894823
당진푸르지오점,충청남도 당진시 북문로 7-7,36.8985461,126.6272526
세종다정점,세종시 다정중앙로 58,36.4956250,127.2492274
동대구역사점,대구광역시 동구 동대구로 550 동대구역사내 신맞이방,35.8794362,128.6287756
증평하나로마트점,충청북도 증평군 광장로 27,36.7904856,127.5792779
신촌로터리점,"서울특별시 마포구 서강로 137 (노고산동,신촌센트럴코업레지던스) 101,102호 뚜레쥬",37.5546815,126.9356102
호계아크로점,경기도 안양시 동안구 엘에스로 35,37.3667387,126.9555790
둔촌동역점,서울특별시 강동구 양재대로 1355,37.5274004,127.1356320
천안두정아크로텔점,충남 천안시 서북구 성정두정로 70,36.8319425,127.1421844
장안점,서울 동대문구 답십리로 294,37.5720419,127.0729925
대구대실점,대구광역시 달성군 다사읍 대실역남로 14,35.8564900,128.4643214
김포북변점,"경기도 김포시 봉화로181번길 36 (감정동,삼환아파트) 105호",37.6271465,126.6998349
대구율하점,"대구광역시 동구 안심로22길  40,102~103호(율하동)",35.8633472,128.6956382
대구사월역점,대구광역시 수성구 달구벌대로 280 시지효성 백년가약상가 301동 (신매동),,
달성하나로클럽점,대구광역시 달성군 화원읍 성천로 9,35.7992908,128.4871823
금호힐스테이트점,서울시 성동구 금호로 4길 2,,
카페강남세곡점,서울시 강남구 헌릉로 569길 23,37.4668135,127.0992359
파주운정산내점,"경기도 파주시 교하로 83 동광프라자 103,104,105",37.7279245,126.7337396
인천송림점,"인천광역시 동구 송림로  113 1층 (송림동, 송영빌딩)",37.4768940,126.6471854
암사역점,서울 강동구 올림픽로 778,37.5504022,127.1279322
부산시청점,부산시 부산진구 진연로 5,35.1782858,129.0745317
제일제당센터점점,"서울특별시 중구 동호로 330 1층 (쌍림동, CJ제일제당빌딩)",37.5638771,127.0033168
고양하나로마트점,경기도 고양시 일산서구 대화로 362,37.6829376,126.7466235
강릉강일점,강원특별자치도 강릉시 율곡로 2939-1(교동),37.7649506,128.8912910
강릉중앙시장점,강원특별자치도 강릉시 곶감전길  1-1 (성남동),37.7528450,128.8967082
신도림태영점,서울특별시 구로구 경인로59길 8 1층,37.5064034,126.8833762
경북영덕점,경상북도 영덕군 덕곡길 99,36.4118139,129.3687894
구미현진점,경상북도 구미시 도봉로 76-61 (도량동),36.1397182,128.3160160
시화점,경기도 시흥시 중심상가4길 12,37.3442322,126.7379851
안양호계2동점,경기도 안양시 동안구 귀인로 99 102호 (호계동),37.3822421,126.9504801
건국대병원점,"서울시 광진구 능동로 120-1, 건국대학교병원 지하 1층",37.5403764,127.0718276
이시아폴리스점,대구광역시 동구 팔공로51길 31,35.9228899,128.6377341
증산역점,서울특별시 서대문구 증가로 259,37.5836735,126.9111874
전남구례점,전라남도 구례군 구례읍 봉성로 146,35.2154613,127.4647215
원주관설점,강원특별자치도 원주시 치악고교길 21,37.3158809,127.9599241
공덕역점,서울특별시 마포구 백범로 178-0  (공덕동),37.5438694,126.9501050
카페워커힐점,서울시 광진구 광장로 89,37.5482001,127.1068843
포항두산위브점,경북 포항시 북구 새천년대로 1249번길 10-11,36.0752042,129.3833472
당진터미널점,충남 당진시 밤절로 140 드림타워,36.9015021,126.6455059
논산터미널점,충청남도 논산시 중앙로 410번길 13-4,36.2017742,127.0894514
예산터미널점,충청남도 예산군 예산읍 역전로 124,36.6901553,126.8300810
강남세브란스병원점,서울 강남구 언주로 211 강남세브란스 1동 B1층,37.4929296,127.0462683
진영우리마트점,"경상남도 김해시 진영읍 본산로 9,1층",35.3066069,128.7376158
군산대점,전북특별자치도군산시 미제3길 2,35.9457056,126.6882419
마천사거리점,서울특별시 송파구 마천로 269,37.4978597,127.1470337
신연수점,"인천광역시 연수구 원인재로 310, 103호, 104호, 108호, 109호",37.4210472,126.6939014
대전중촌점,대전광역시 중구 목중로 24 1층 (중촌동),36.3362174,127.4113802
송도글로벌파크점,"인천 연수구 송도문화로 28번길 27,상가 1동 103,104,203호",37.3756508,126.6562056
전주아중점,전북특별자치도 전주시 덕진구 석소로 58-0  (우아동2가),35.8323502,127.1679482
대구신월성점,대구광역시 달서구 조암로 28(월성동),35.8252878,128.5266166
카페안암역점,서울특별시 성북구 인촌로24길 20,,
전남벌교점,전라남도 보성군 벌교읍 시장2길 13,34.8440538,127.3459729
여수돌산점,전라남도 여수시 돌산읍 강남로 64,34.7210509,127.7517306
동탄푸른점,경기도 화성시 동탄공원로24 24,37.2024704,127.0565562
오창한라점,충청북도 청원군 오창읍 오창중앙로 96 한라비발디단지상가 106호,36.7080568,127.4196322
양주덕계제일점,경기도 양주시 평화로 1437 1층(덕계동),37.8193245,127.0462806
안산크리스탈점,경기도 안산시 상록구 도매시장로 118,37.3156050,126.8652990
충북보은점,충청북도 보은군 보은읍 삼산로 15,36.4844270,127.7203776
수원영통중앙점,경기도 수원시 영통구 봉영로 1606,37.2538737,127.0744859
관악농협하나로점,서울 관악구 남부순환로 1369 관악농협하나로마트,37.4801043,126.9028507
연수무지개점,인천광역시 연수구 원인재로 14,37.4015427,126.6704448
영월중앙점,강원특별자치도 영월군 영월읍 중앙로 36,37.1833265,128.4675801
세종새롬점,"세종특별자치시 새롬중앙로 34 109A,B호(새롬동,크리스마스빌딩)",36.4845919,127.2524926
사천점,경남 사천시 사천읍 평화리 163-13,35.0819140,128.0881059
부산신항점,경남 창원시 진해구 신항4로 58 1351,,
은평구청점,서울특별시 은평구 은평로  197 1층,37.6016473,126.9295303
천안신부점,충청남도 천안시 동남구 단대로 51,36.8272970,127.1571554
대전월평다모아점,"대전광역시 서구 월평동로 83 상가 130호 (월평동, 다모아아파트)",36.3622871,127.3669525
제주삼화점,제주특별자치도 제주시 화북1동 1023-4,33.5144570,126.5757279
구미신비로점,경상북도 구미시 신비로 95(공단동),36.1207813,128.3719340
서부산유통단지점,부산시 강서구 유통단지 1로 49번길 6,35.1671424,128.9552517
인천불로창성점,인천광역시 서구 검단로 768번길 10 101호(불로창성프라자),37.6130800,126.6863050
밀양내이동점,경남 밀양시 백민로 81,35.4997717,128.7460844
김해구산로터리점,경남 김해시 가락로 260,35.2484372,128.8736837
진주평거점,경남 진주시 평거로 7,35.1718202,128.0625360
목포석현점,전라남도 목포시 텃골로 13번길 79,34.8159025,126.4185332
대구구지점,대구광역시 달성군 구지면 응암리 1206-3,35.6555792,128.4185574
오전중앙점,"경기도 의왕시 오전로 216 1,2호",37.3597773,126.9674820
강릉유천하나로점,강원특별자치도 강릉시 선수촌로 63번길 14-8,37.7571096,128.8694490
신기점,인천광역시 미추홀대로 589,37.4499429,126.6795056
경남창녕점,경상남도 창녕군 창녕읍 명덕로 91-1,35.5433187,128.4993644
대전탄방역점,"대전광역시 서구 문정로 64, 101호(탄방동, 송림빌딩)",36.3464801,127.3863854
울산강동산하점,"울산 북구 산하 중앙3로 142, 서희스타힐스 상가",35.6376347,129.4388300
울산명촌점,울산시 북구 명촌로 43,35.5564210,129.3571383
용산역사점점,서울특별시 용산구 한강대로 23길 55 용산민자역사 3층 맞이방,37.5297718,126.9647415
예천중앙점,경상북도 예천군 중앙로 28-1,36.6565519,128.4551349
하남풍산점,"경기도 하남시 덕풍동로 111-21 (KN몰 101, 101-1호)",37.5518097,127.2076955
목포용해점,전라남도 목포시 용당로 339,34.8169692,126.3992166
정관방곡점,부산시 기장군 정관덕산길 44,35.3222361,129.1842757
김해진영점,경남 김해시 진영읍 진영로 214,35.3025269,128.7363872
대구성당점,대구광역시 남구 성당로  186 (대명동),35.8498555,128.5719254
중동펠리스카운티점,경기도 부천시 장말로 225 (중동),37.4925684,126.7671034
대구혁신도시점,대구광역시 동구 이노밸리로 166 (각산동),35.8784441,128.7153007
대구동아쇼핑점,대구 중구 달구벌대로 2085,35.8663086,128.5918299
소하동양점,"경기도 광명시 하안로 196 (소하동,동양아파트) 동양아파트상가 102호",37.4546488,126.8868976
카페서대문역점,서울 중구 통일로 102,37.5643258,126.9684797
울산신정푸르지오점,울산광역시 남구 팔등로 63,35.5455741,129.3132735
충주푸르지오점,충북 충주 봉현로 355,36.9774275,127.9433889
카페서수원점,경기도 수원시 권선구 서부로 1822-55,37.2736075,126.9697985
군산수송공원점,전북특별자치도군산시 수송동로 79,35.9664908,126.7194688
춘천강북벨몽드점,강원특별자치도 춘천시 사우4길 36 (사농동) 1층,37.9062826,127.7281150
경북신도청점,경상북도 안동시 풍천면 수호로  63,36.5758074,128.5011933
양천향교역점,서울시 강서구강서로 463,37.5669502,126.8404559
광주수완점,광주광역시 광산구 임방울대로 342,35.1903865,126.8243182
칠곡석적점,경북 칠곡군 석적읍 유학로 36,36.0779830,128.4135832
청주가경점,충청북도 청주시 흥덕구 가경로 155,36.6286290,127.4366829
광주파라다이스점,"경기도 광주시 중앙로 206, 1층(송정동)",37.4179013,127.2569247
나주혁신중앙점,전남 나주시 빛가람동 348-1,35.0207975,126.7853409
공주중앙점,충청남도 공주시 웅진로 173,36.4557254,127.1244509
목감중앙점,경기도 시흥시 목감중앙로 53,37.3729707,126.8550039
일산그랜드백화점점,"경기도 고양시 일산서구 중앙로  1436 지하2층 (주엽동, 일산그랜드백화점)",37.6708154,126.7610565
목포남악도청점,전라남도 무안군 삼향읍 남악2로 74번길 39,34.8130693,126.4592078
대전관저점,대전광역시 서구 구봉로 137 밀리온빌딩 1차 106호,36.2967072,127.3381807
장유내덕점,경남 김해시 금관대로 599번길 26,35.2042853,128.8141554
카페검암1지구점,인천광역시 서구 승학로 470 1층,37.5636658,126.6735418
응암오거리점,서울특별시 은평구 응암로 207,37.5905708,126.9171012
소래포구역점,"인천광역시 남동구 소래역남로  10-0 104호, 105호 (논현동)",37.3976027,126.7354700
영등포역점,서울시 영등포구 경인로 836,37.5158828,126.9057636
성남여수점,경기도 성남시 중원구 여수울로15번길  4-6 102호 (여수동),37.4189457,127.1313323
김천율곡점,경상북도 김천시 혁신4로 69,36.1214647,128.1891259
카페안중송담점,경기도 평택시 안중읍 송담5길 65,36.9795580,126.9285277
내포신도시점,충청남도 홍성군 홍북면 신경리 애향1길 1번지,,
광명하안점,경기도 광명시 하안로 294-7 (한진빌딩),37.4624654,126.8808405
공덕해링턴점점,서울시 마포구 마포대로 92 B동 1층 1호,37.5428592,126.9513333
기장교리점,부산광역시 기장군 기장읍 차성로 436,35.2544830,129.2177784
양산서창점,경남 양산시 삼호1길 51,35.4146161,129.1680282
율리역점,부산시 북구 학사로 299,35.2476064,129.0126348
포항우현점,경상북도 포항시 북구 중앙로 419번길 24 (우현동),36.0503768,129.3599362
광주버들마을점,광주광역시 서구 상무버들로 35,35.1641451,126.8595355
울산유곡혁신점,울산광역시 중구 종가 4길 13,35.5602526,129.2950908
의성안계점,경상북도 의성군 안계면 안계길 165,36.3858835,128.4351960
여수엑스포타운점,전남 여수시 박람회길 2042-1,,
진주판문점,경상남도 진주시 진양호로  123 (평거동),35.1681600,128.0528491
구미구평점,경상북도 구미시 인동36길 24-2 (진평동),36.0927887,128.4318242
대구세천점,대구광역시 달성군 다사읍 세천로 157,35.8747991,128.4782480
상주낙양점,경상북도 상주시 경상대로 2927-1 (낙양동),36.4085401,128.1503412
카페구리갈매점,경기도 구리시 산마루로 24 신성타워 104호,37.6314300,127.1177975
수원정자시장점,경기도 수원시 장안구 수성로262번길  2 (영화동),37.2897382,127.0011619
홍천연봉점,강원특별자치도 홍천군 연봉로 32 강원 홍천군 홍천읍 연봉리 476-1번지,37.6819916,127.8772350
안양비산대림점,경기도 안양시 동안구 관악대로 169,37.3991863,126.9428695
부산센텀점,부산시 해운대구 우동 센텀중앙로 55,,
개봉3동점,서울특별시 구로구 개봉로3길  35 (개봉동),37.4861749,126.8543242
과천중앙점,"경기도 과천시 별양상가1로 10 107호 (별양동, 과천타워)",37.4269618,126.9920102
카페시흥정왕점,경기도 시흥시 옥구상가 2길 3,37.3536963,126.7244172
카페마산해안대로점,경남 창원시 마산합포구 해안대로 303,35.2000255,128.5741935
카페거제상문점,경상남도 거제시 상동5길 115  (상동동),34.8611639,128.6296338
전주서곡점,전북특별자치도전주시 완산구 서곡로 55,35.8340030,127.1002075
경북군위점,대구광역시 군위군 군위읍 중앙길 22 (서부리) .,36.2308363,128.5681426
진천혁신도시점,충청북도 진천군 덕산면 시가로 14,36.9024439,127.5336674
제주이도초교점,제주특별자치도 제주시 구남로4길 2-2,33.4895413,126.5333496
카페광운대역점,서울시 노원구 월계동 석계로 105,,
평택포승점,경기도 평택시 포승읍 여술로 20 (도곡리) 1층,36.9877168,126.8447486
부산부경대점,부산시 남구 용소로 38,35.1340404,129.1007836
동백골드점,"경기도 용인시 기흥구 동백중앙로 283 B동 105호 (중동, 골드프라자)",37.2780255,127.1534729
춘천한림대점,강원특별자치도 춘천시 삭주로 76 1층,37.8833663,127.7390845
제주노형오거리점,제주도 제주시 월랑로 15,33.4874210,126.4774616
원주흥업점,강원특별자치도 원주시 흥업면 남원로 72,37.3024217,127.9201934
노량진삼거리점,서울특별시 동작구 장승배기로  169 (노량진동),37.5127393,126.9400260
카페구리수택점,경기도 구리시 체육관로74번길 23 삼화빌딩,37.5913721,127.1394142
간석벽산점,인천 남동구 호구포로 898,37.4624630,126.7206901
대구행복점,"대구광역시 북구 대현로 106-0  (대현동, 늘푸른주상복합)",35.8820969,128.6103774
대전법동점,대전광역시 대덕구 동춘당로 167(법동),36.3676583,127.4329894
경주동천점,경상북도 경주시 양정로  269-0  (동천동),35.8567891,129.2239593
진해북원로터리점,경남 창원시 진해구 여명로 5,35.1536860,128.6558051
제주모슬포점,제주특별자치도 서귀포시 대정읍 동일하모로179번길 9-2,33.2270545,126.2500396
제천강저점,충청북도 제천시 청풍호로 10길 31(강제동),37.1199023,128.1983740
독립문점,"서울특별시 서대문구 통일로 191, 1층 (영천동)",37.5704024,126.9617752
곤지암점,경기도 광주시 곤지암읍 곤지암로 47,37.3495811,127.3414963
이천창전사거리점,경기도 이천시 이섭대천로 1284,37.2847077,127.4477483
삼성창원병원점,경상남도 창원시 마산회원구 팔용로 158,35.2424957,128.5923771
대전사학연금점,대전광역시 서구 한밭대로 809  (둔산동)  809  (둔산동),36.3582645,127.3888662
충남태안점,충청남도 태안군 태안읍 환동로 81-2,36.7544065,126.2945930
수지구청역점,"경기도 용인시 수지구 수지로 296번 길 39, 1층 일부(풍덕천동)",37.3224418,127.0935141
광주하남중흥점,광주광역시 광산구 풍영철길로 20-6,35.1627944,126.8127145
순천오천점,"전남 순천시 오천6길 6  105,106,107호",34.9348178,127.4943872
용상홈마트점,경상북도 안동시 경동로 822 (용상동),36.5614258,128.7465058
원주단관택지점,강원특별자치도 원주시 단구로 374,37.3231017,127.9568144
제주노형타운점,제주특별자치도 제주시 노형6길 2,33.4817522,126.4769411
충북혁신도시점,충청북도 음성군 맹동면 대하로 277,36.9120196,127.5445210
전주고속터미널점,전북특별자치도 전주시 덕진구 전주천동로 470,35.8351565,127.1280871
울산방어점,울산광역시 동구 화문로  51 (방어동),35.4840209,129.4147272
광명휴먼시아점,"경기도 광명시 하안로 112 101호 (소하동, 신촌프라자)",37.4483787,126.8916635
대전도안수목토점,대전광역시 서구 원도안로179번길  7-7 1층 (도안동),36.3193045,127.3440085
시흥대야로데오점,경기도 시흥시 비둘기공원7길  57(대야동),37.4410645,126.7915375
부산남천점,부산광역시 수영구 수영로 465(남천동),35.1475113,129.1100900
영등포도림점,서울 영등포구 도신로15길 38,37.5084790,126.8966539
충주터미널점,충청북도 충주시 계명대로 19,36.9826514,127.9165916
진주초장점,경상남도 진주시 초북로 50 (초전동),35.2130254,128.1113012
마산현동점,경상남도 창원시 마산합포구 현동로 50(현동),35.1510923,128.5535471
사천정동점,경상남도 사천시 진삼로  1398-0,35.0762093,128.0848755
여수봉계점,"전라남도 여수시 좌수영로 682-19, 101호",34.7845115,127.6930019
경주중앙점,경상북도 경주시 중앙로 49 (동부동),35.8443098,129.2114484
둔촌대우점,서울특별시 강동구 명일로 166(둔촌동),37.5336934,127.1448147
경북성주점,경상북도 성주군 성주읍 성주로 3214,35.9184322,128.2854111
경북울진점,경상북도 울진군 울진읍 울진중앙로 137,36.9938217,129.4010440
부천심곡점,경기도 부천시 소사구 경인로 190,37.4834201,126.7765215
연수단비점,인천광역시 용담로 118번길 3,37.4144303,126.6779046
속초조양점,"강원특별자치도 속초시 온정로 25 (조양동,속초조양LH천년나무3단지아파트) 상가 101호,",38.1864883,128.5925069
김해삼정대로점,경상남도 김해시 김해대로 2517번길 1 (삼정동),35.2284276,128.9018085
창원경상대병원점,경상남도 창원시 성산구 삼정자로 11 (성주동),35.1990873,128.7078463
양주백석복지리점,경기도 양주시 꿈나무로 281,37.7855564,126.9840921
전남완도점,전라남도 완도군 장보고대로 237,34.3164103,126.7513178
용산2가점,서울특별시 용산구 신흥로  89-0  (용산동2가),37.5456788,126.9854509
오산자이점,경기도 오산시 동부대로 332-6(갈곶동),37.1313970,127.0788791
서산테크노밸리점,충남 서산시 성연면 성연3로 35 이안아파트앞 테크노빌딩 102호,36.8225622,126.4512942
마포밤섬점,"서울특별시 마포구 독막로20나길 22, 상가2동 B05호 (상수동, 래미안 밤섬리베뉴1)",37.5467084,126.9253090
울산언양읍성점,울산광역시 울주군 읍성로 165,35.5701678,129.1253941
대구용산점,대구광역시 달서구 용산로 225 106호 (용산동),35.8578062,128.5303182
광주흑석점,광주 광산구 풍영로 101번 안길 1-7,35.1802206,126.8111669
안동풍산점,경상북도 안동시 풍산읍 풍산중앙길 89-1,36.5803350,128.5709143
왕십리민자역사점,서울시 성동구 왕십리광장로 17 왕십리역사내 4층,37.5614086,127.0384812
춘천장학점,강원특별자치도 춘천시 동면 춘천순환로 613,37.8933790,127.7555905
아산용화점,충남 아산시 온중로 21번지,36.7725498,126.9961358
경산사동점,경상북도 경산시 백자로  119 (사동),35.8158855,128.7579212
진주혁신LH점,경남 진주시 사들로 83,35.1752409,128.1488780
주안역북부점,인천광역시 남구 염창로 55,37.4658491,126.6802340
원주혁신점,강원특별자치도 원주시 혁신로 37-3,37.3236487,127.9793852
충북대소점,"충청북도 음성군 오태리 85, 1층",,
김포한강신도시점,경기도 김포시 김포한강2로 222,37.6453959,126.6610517
청주가경주공점,충청북도 청주시 흥덕구 가경로 16-2,36.6172359,127.4439036
상동역점,경기도 부천시 길주로 77번길 61,37.5075175,126.7523770
전주다농L마트점,전북특별자치도전주시 덕진구 시천로 96-14,35.8672709,127.1161183
울산신정현대점,울산광역시 남구 대암로  50 (신정동),35.5311610,129.3214443
산격대우점,대구광역시 북구 동북로31길 30산격대우상가 201동 101호 (산격동),35.9017014,128.6092594
안산기쁨점,경기 안산시 상록구 후곡로 90,37.2956463,126.8522187
오창산업단지점,"충청북도 청주시 청원구 주성1길 17, 1층",36.7324927,127.4508187
일산후곡마을점,경기도 고양시 일산서구 일산로 568,37.6790957,126.7654286
김천신음점,경상북도 김천시 시청로  69 (신음동),36.1346025,128.1172421
평택법원점,경기도 평택시 비전2로 7 (동삭동) 1층,37.0090706,127.0965074
의정부용현점,경기도 의정부시 오목로  14 (용현동),37.7321262,127.0849838
강남자곡점,서울특별시 강남구 자곡로 180 유탑유블레스 1층 101,37.4736941,127.1033940
안성죽산점,경기도 안성시 죽산면 구교동길 2 (죽산리),37.0735485,127.4181015
전북대사대부고점,전북특별자치도 전주시 덕진구 조경단로  107-0  (금암동),35.8438351,127.1383503
대전목상점,대전시 대덕구 대덕대로 1470번길 52,36.4467803,127.4120830
울산달동본점점,울산광역시 남구 번영로 107번길 6,35.5350996,129.3280639
익산원광대점,전북특별자치도 익산시 무왕로 892 (신동),35.9637135,126.9576815
서서울공원점,서울시 양천구 신월동 남부순환로 431,,
수원동보신명점,"경기도 수원시 영통구 매영로310번길 87 (영통동,동보.신명아파트) 동보신명 아파트 상가",37.2506929,127.0640570
안산중앙역점,"경기도 안산시 단원구 중앙대로 918 (고잔동,중앙역)",37.3160121,126.8384965
분당효자촌점,"경기도 성남시 분당구 돌마로 478, 104호",37.3769796,127.1334348
화계사사거리점,서울특별시 강북구 덕릉로 37,37.6344143,127.0178570
백석밀라트점,경기도 고양시 일산동구 중앙로 1005,37.6406138,126.7906842
장유젤미마을점,"경남 김해시 번화1로 80번길 9, 다이아몬드빌딩 103호 107호",35.1948952,128.8005282
부개역북부점,인천광역시 부평구 부일로 87-0 (부개동),37.4889969,126.7397559
나은병원점,인천광역시 서구 원적로 29,37.4897425,126.6799579
청주율량칸타빌점,충청북도 청주시 청원구 율량로 135,36.6709013,127.5005637
울산천상제일점,울산광역시 울주군 범서읍 천상중앙길 100-1,35.5626014,129.2254445
태백상장점,강원특별자치도 태백시 감천로 6 감천로 6,37.1589981,128.9868918
제주서사라점,제주특별자치도 제주시 서사로 133,33.5003560,126.5200403
나주대호점,전남 나주시 대호길 75,35.0425534,126.7178434
의왕역점,경기도 의왕시 부곡중앙로 6-4 6-4,37.3207223,126.9494471
구미봉곡중앙점,경상북도 구미시 봉곡북로 65 (봉곡동),36.1543269,128.3110448
공릉점,"서울특별시 노원구 동일로192길 77 (공릉동,동신아파트) 상가 1층",37.6273942,127.0768822
어린이대공원역점,"서울시 광진구 광나루로 410 (화양동,케이씨씨 파크타운 1층 111호,106호)",37.5465757,127.0750446
세종센텀파크점,세종특별자치시 달빛로 77,36.5069609,127.2481960
죽전에브리데이점,경기도 용인시 수지구 대지로 3번길,,
나주빛가람점,전남 나주시 그린로 341 토담빌딩 104호,35.0169992,126.7939553
신곡초교점,경기도 의정부시 능곡로 26(신곡동),37.7402506,127.0599880
울산반구강변점,울산광역시 중구 반구로 39(반구동),35.5548029,129.3454873
부천고강점,경기도 부천시 오정구  역곡로 479-0 1층 (고강동),37.5272693,126.8158605
김해국제공항점,"부산광역시 강서구 공항진입로 108 (대저2동, 국제선2층)",35.1720764,128.9474778
충남태안하나로마트점,충청남도 태안군 중앙로  170-0,36.7491947,126.3063424
삼척교동점,강원특별자치도 삼척시 청석로  63-0  (교동),37.4481935,129.1757335
광주수완대방점,광주 광산구 임방울대로 216,35.1804294,126.8182292
익산부송점,전북특별자치도 익산시 무왕로26 8-1,,
화성조암점,경기도 화성시 조암남로  28,37.0835197,126.8185083
안산상록수점,경기도 안산시 상록구 샘골로  190-0 101호 (본오동),37.3007192,126.8635626
문산당동점,경기도 파주시 방촌로  1626-0 희원프라자 1층 103호,37.8599960,126.7774400
안성당왕점,"경기도 안성시 고수2로  24-0 102호202호 (당왕동, 태영아파트)",37.0151259,127.2585461
의정부회룡역점,경기도 의정부시 평화로  363-8  (호원동),37.7244975,127.0476997
부산반여점,부산광역시 해운대구 선수촌로  64-0  (반여동),35.1993177,129.1189658
포항양덕점,경북 포항시 북구 양덕로 44,36.0826142,129.4021964
문경중앙점,경상북도 문경시 중앙로  160-1  (흥덕동),36.5988162,128.2021171
거창아림점,"경상남도 거창군 거창읍 거열로 98 (상림리,그린빌딩) 1층",35.6883663,127.9046361
의정부신곡풍림점,경기도 의정부시 추동로  95-0  (신곡동),37.7476312,127.0645330
제주남녕점,제주특별자치도 제주시 일주서로  7868-0 11 (연동),33.4935408,126.4872230
신방화마곡점,서울 강서구 마곡동 마곡엠밸리1단지상가1층103호,,
양천캐슬점,"서울특별시 양천구 오목로5길  19-0 상가 102호 (신월동, 양천롯데캐슬)",37.5234020,126.8400897
청주수곡사거리점,"충청북도 청주시 흥덕구 수곡로  46-0  (수곡동, 세원청실아파트)",,
충북증평점,충청북도 증평군 중앙로  202-0,36.7839372,127.5813435
대전둔산샘머리점,"대전광역시 서구 청사로 281 (둔산동,샘머리아파트2단지) 샘머리코아 110호",36.3615949,127.3938220
대구죽곡점,대구광역시 달성군 대실역북로 1길 9-0 MS프라자 106호,35.8586300,128.4657092
청주지웰시티점,"충청북도 청주시 흥덕구 대농로 39 (복대동) (복대동,LK트리플렉스)",36.6423665,127.4268881
울산일산점,울산광역시 동구 등대로 12,35.4919590,129.4275971
파주한빛마을점,"경기도 파주시 와석순환로 86 (야당동, 102, 103호)",37.7114911,126.7502656
길동신명점,서울특별시 강동구 명일로  263-1  (길동),37.5422919,127.1473582
아산트라팰리스점,충청남도 아산시 탕정면로  18-0 1층 101호,36.7985515,127.0591240
부평중앙점,인천광역시 부평구 부흥로  283-0  (부평동),37.4988192,126.7234927
의정부호원가든점,경기도 의정부시 호동로  67-0 화성프라자호 107 (호원동),37.7279274,127.0433266
청주봉명아이파크점,충청북도 청주시 흥덕구 덕암로114번길  37-0  (봉명동),36.6497698,127.4605380
원주연세대점,강원특별자치도 원주시 연세대길  1-0 연세대길 1,37.2808750,127.9010000
판교우림점,경기도 성남시 분당구 판교로255번길  20-0 9-22 (삼평동),37.4049470,127.1014254
청주성모병원점,충청북도 청주시 상당구 주성로  173-19  (주중동),,
마산합성터미널점,경상남도 창원시 마산회원구 3.15대로  745-0  (합성동),35.2386920,128.5824406
부산온병원점,부산광역시 부산진구 가야대로  721 (당감동),35.1578994,129.0499565
행신서정마을점,"경기도 고양시 덕양구 중앙로 438 (행신동,아름터프라자) 1층",37.6180013,126.8467303
선유도역점,"서울특별시 영등포구 양평로22길  4 (양평동4가, 양문빌딩)",37.5381289,126.8943686
거제아주덕산점,경상남도 거제시 아주로  100-11  (아주동),34.8664009,128.6834908
충북영동중앙점,충청북도 영동군 영동읍 중앙로 46,36.1754940,127.7783250
상일세종점,서울특별시 강동구 상일로10길  36 104호 (상일동),37.5508328,127.1741318
군산수송오투점,전북특별자치도 군산시 축동로 49 (수송동),35.9637509,126.7105235
청주분평주공점,충청북도 청주시 서원구 월평로 78 (분평동) 1층,36.6111834,127.4935472
부평산곡점,"인천광역시 부평구 부영로189번길  51 118호 (산곡동, 오남프라자)",37.5021433,126.7129333
서울여대점,"서울특별시 노원구 화랑로  621 서울여대 50주년기념관 1층 106호 (공릉동, 서울여",37.6280329,127.0904235
마산진동점,경상남도 창원시 마산합포구 진동면 삼진의거대로  644-1,35.1158501,128.4880489
도당북부점,경기도 부천시 삼작로  298 (도당동),37.5200354,126.7948706
청라센타시아점,인천광역시 서구 중봉대로612번길 16 청라센터시아 1층 (연희동),37.5338877,126.6513862
원주문막극동점,강원특별자치도 원주시 문막읍 건등로  67-1,37.3147548,127.8213650
안산한대역점,경기도 안산시 상록구 광덕1로  370 (이동),37.3076190,126.8509888
분당미금점,"경기도 성남시 분당구 정자일로 25,대덕프라자103호(금곡동)",37.3524000,127.1056726
대전한밭대점,대전광역시 유성구 학하중앙로  15 (덕명동),36.3487093,127.2982805
이천SK하이닉스점,경기도 이천시 부발읍 경충대로 2096-4,37.2520989,127.4903126
남양주오남신우점,경기도 남양주시 오남읍 진건오남로512번길  4 105 (동명프라자),,
수원원천점,경기도 수원시 영통구 매봉로  53 (매탄동),37.2727172,127.0532288
양산석산점,경상남도 양산시 동면 금오16길 6,35.3177087,129.0261828
영월하송점,강원특별자치도 영월군 영월읍 하송로 115,37.1790164,128.4595813
동두천송내점,"경기도 동두천시 중앙로  112 1 (지행동, 메인프라자)",37.8914739,127.0525009
보문역점,서울특별시 성북구 지봉로  184 1층 (보문동2가),37.5850170,127.0191841
용인상갈점,경기도 용인시 기흥구 금화로  87 102호 (상갈동),37.2658453,127.1082100
논산계룡대점,충청남도 계룡시 엄사면 엄사중앙로 95,36.2892126,127.2417073
원주봉화산점,강원특별자치도 원주시 백간공원길  22 (단계동),37.3498482,127.9264268
리버파크10단지점,서울특별시 강동구 고덕로97길 20 104호,37.5606354,127.1810908
울산남목현대점,울산광역시 동구 동해안로  50 (동부동),35.5420727,129.4287300
대림우성점,서울특별시 영등포구 대림로  153 (대림동),37.4944405,126.8998339
안양범계역직영점,경기도 안양시 동안구 평촌대로217번길  45,37.3899764,126.9535310
파주교하중앙점,경기도 파주시 책향기로 423  423,,
여수국동점,전라남도 여수시 신월로  677 (국동),34.7315631,127.7175766
마산교방점,경상남도 창원시 마산합포구 노산서18길  115 (교방동),35.2146897,128.5642519
옥동호반점,경상북도 안동시 옥서1길  63 (옥동),36.5609481,128.6942726
모현e편한세상점,"전북특별자치도 익산시 선화로10길  17-0  (모현동1가, e편한세상)",35.9466050,126.9460663
부산사상터미널점,부산광역시 사상구 사상로  204 (괘법동),35.1633780,128.9843642
경산진량보국점,경상북도 경산시 진량읍 다문로 58,35.8746548,128.8175549
율하신도시점,"경상남도 김해시 율하3로 56, 103호(율하동, 태경프라자)",35.1726499,128.8153969
양주자이점,"경기도 양주시 삼숭로38번길  80 2112호 (삼숭동, 양주프라자)",37.7961972,127.1058023
의정부녹양점,경기도 의정부시 녹양로  59 1층 (녹양동),37.7566688,127.0327898
구로구청점,"서울특별시 구로구 가마산로  286 104호 (구로동, SR친오애주상복합아파트)",37.4966207,126.8921743
부산진역점,부산광역시 동구 중앙대로 373,35.1288745,129.0484751
김제검산점,전북특별자치도 김제시 금성로  111 (검산동),35.8001264,126.9021138
진천성모병원점,충청북도 진천군 진천읍 중앙북로 33,36.8589822,127.4406526
직산하나로마트점,충청남도 천안시 서북구 직산읍 직산로  31 직산농협하나로마트,36.8801180,127.1537364
연산LG점,부산광역시 연제구 토곡로  29 (연산동),35.1819903,129.1044081
구미송정점,경상북도 구미시 백산로  61 (송정동),36.1215652,128.3406449
명지오션시티점,부산광역시 강서구 명지오션시티5로  12 (명지동),35.0832637,128.9041943
마두역점,경기도 고양시 일산동구 강석로  123 뉴삼창마트 A동 180 101 (마두동),37.6518505,126.7788438
대성디폴리스점,서울특별시 금천구 서부샛길  606 대성 디폴리스 110호 (가산동),37.4799926,126.8770398
여수여서점,전라남도 여수시 여서1로  75 (여서동),34.7536270,127.7055152
박촌역점,"인천광역시 계양구 장제로 1004 (박촌동,계양한양수자인) 1004",37.5547854,126.7463043
전주서신점,전북특별자치도 전주시 완산구 당산로  54 (서신동),35.8320043,127.1140543
한국복합물류점,경기도 군포시 번영로  82-0  (부곡동),37.3309474,126.9372338
온양역점,충청남도 아산시 온천대로  1504 (온천동),36.7810478,127.0046321
김해삼계점,경상남도 김해시 해반천로168번길  10 (삼계동),35.2630397,128.8683221
남양주청학점,경기도 남양주시 별내면 청학로68번길  13,37.7085592,127.1193730
샤로수길점,서울특별시 관악구 남부순환로230길  35 1층 (봉천동),37.4784921,126.9556598
안성금산점,경기도 안성시 대학로  B동 110호 111호 (금산동),,
오산역점,경기도 오산시 역광장로 55,37.1453601,127.0674414
의정부시청점,경기도 의정부시 범골로  109 (의정부동),37.7345373,127.0379415
명일역메가타운점,서울특별시 강동구 구천면로  424 (명일동),37.5503475,127.1455974
병점금강점,"경기도 화성시 병점2로  6 102동 103호 (병점동, 금강타운)",37.2050347,127.0377716
성수역점,서울특별시 성동구 성수이로  113-0  (성수동2가),37.5451530,127.0571368
원주상지대점,강원특별자치도 원주시 우산로  71 (우산동),37.3699702,127.9367354
괴안사거리점,경기 부천시 범안로 32,37.4789864,126.8069807
청주사천점,충북 청주시 청원구 율봉로 43,36.6641885,127.4753176
광주용봉점,광주광역시 북구 비엔날레로82번길  41 용봉아이파크제상가 108호 (용봉동),35.1799954,126.8912299
청량리미주점,서울특별시 동대문구 왕산로  225 (청량리동),37.5821340,127.0472283
원주중앙점,강원특별자치도 원주시 원일로  114 (중앙동),37.3499886,127.9487173
울진후포점,경상북도 울진군 후포면 후포삼율로 100,36.6788884,129.4419937
대화역점,경기도 고양시 일산서구 강성로  263 (대화동),37.6767582,126.7480541
부산덕천로터리점,부산광역시 북구 백양대로  1204 외 1필지 (덕천동),35.2099677,129.0059238
부산대남교차로점,부산광역시 수영구 수영로  381 (남천동),35.1410168,129.1063966
충북괴산점,충청북도 괴산군 괴산읍 읍내로11길 3,36.8091720,127.7942530
장유석봉점,경남 김해시 삼문동 30-8프리코아상가112호,35.2027274,128.8068758
청원내수점,충청북도 청원군 내수읍 청암로 54,36.7232975,127.5363914
가양프라자점,"서울특별시 강서구 허준로  198 102호 101 (가양동, 가양프라자)",37.5613029,126.8602635
대림3동점,서울특별시 영등포구 가마산로  352 (대림동),37.4999840,126.8981753
문경모전점,경상북도 문경시 당교로  261 (모전동),36.5867322,128.1914188
익산동산이마트점,전북특별자치도 익산시 서동로  31 제이파크상가 301동 103호 (인화동2가),35.9307250,126.9564598
부산동의의료원점,부산광역시 부산진구 양정로  62-0 부속동의의료원 (양정동),35.1698203,129.0765140
송천센트레빌점,"서울특별시 강북구 숭인로  39-0  (미아동, 송천센트레빌)",37.6127453,127.0255275
부평삼산점,인천광역시 부평구 체육관로  32 하이존 HI-ZONE 105호106호 (삼산동),37.5083100,126.7351678
신이문점,서울특별시 동대문구 이문로  206 (이문동),37.6048916,127.0622192
충주연수점,충청북도 충주시 번영대로  103 (연수동),36.9874428,127.9291769
화성남양점,"경기도 화성시 남양성지로  147 103호 (남양동, 아이리스프라자)",37.2097400,126.8190799
거제수월점,경상남도 거제시 수양로  451 (수월동),34.8923189,128.6412556
아리랑삼거리점,서울특별시 성북구 아리랑로  119 (정릉동),37.6025301,127.0133409
안산다농점,경기도 안산시 상록구 예술광장로  1 (월피동),37.3283714,126.8442343
상무치평점,"광주광역시 서구 상무중앙로  95 1층 107호 (치평동, 차스타워)",35.1554918,126.8477681
을지로3가역점,"서울특별시 중구 을지로 지하 131 309호 (을지로3가, 지하상가)",,
킨텍스2전시장점,"경기도 고양시 일산서구 한류월드로  408 (대화동, 킨텍스)",,
킨텍스1전시장점,"경기도 고양시 일산서구 한류월드로  408 (대화동, 킨텍스)",,
강남구청역점,"서울특별시 강남구 선릉로  664 1층 101 (삼성동, 건설빌딩)",37.5158956,127.0423350
시지고산점,"대구광역시 수성구 천을로  91 104동 501호 시301동 (시지동, 시지태왕아너스)",35.8452403,128.7011627
충북음성점,충청북도 음성군 음성읍 수정로 55,36.9350378,127.6925891
거제상동점,경상남도 거제시 상동1길  15-3 (상동동),34.8644221,128.6402033
성서이곡점,대구광역시 달서구 계대동문로 98 1층 (이곡동),35.8551770,128.5030982
부산서면직영점,부산광역시 부산진구 중앙대로692번길  43 (부전동),35.1546440,129.0615825
전북고창점,전북특별자치도 고창군 고창읍 중앙로 184,35.4350958,126.6957212
대전엑스포점,"대전광역시 유성구 엑스포로  488 1층 15-1호 (전민동, 엑스포코아)",36.4000141,127.4057196
대구동호점,대구광역시 동구 금강로  2 (동호동),35.8672755,128.7238584
음성공장점,충청북도 음성군 대소면 대소산단로  20 음성공장 (CJ푸드빌),36.9815987,127.4586553
인천용현점,인천광역시 남구 낙섬중로  36 (용현동),37.4513429,126.6374760
대방역점,서울특별시 동작구 알마타길 6 110호 (대방동),37.5105906,126.9251787
카페센티움점,"서울특별시 송파구 송파대로30길  16 111호 ,112호,113호 (가락동, 송파가락두산위브센",37.4945922,127.1191447
온수역남부점,서울특별시 구로구 경인로3길  58 (온수동),37.4920246,126.8246475
구로IT점,서울특별시 구로구 디지털로31길 19,37.4849727,126.8940970
순천조례명성점,전라남도 순천시 신월큰길  31 (조례동),34.9605695,127.5183970
가능역점,경기도 의정부시 평화로  633-1 (의정부동),37.7484035,127.0450603
칠성홈플러스점,대구광역시 북구 중앙대로  546-1 (칠성동2가),35.8816812,128.5966357
포천중앙점,경기도 포천시 중앙로  113 (신읍동),37.8967186,127.2024676
상주터미널점,경상북도 상주시 삼백로  82 (무양동)장원프라자 110호,36.4181969,128.1525231
전주효자1가점,전북특별자치도 전주시 완산구 용머리로  158 (효자동1가),35.8058712,127.1273865
진주초전푸르지오점,경상남도 진주시 초장로14번길  4-2 (초전동),35.2035573,128.1145934
청주흥덕점,충청북도 청주시 서원구 창신로 47,36.6349593,127.4645209
남한산성역점,경기도 성남시 중원구 산성대로  474 (금광동),37.4538604,127.1612535
순천터미널점,전라남도 순천시 이수로  21 (장천동),34.9480459,127.4900625
구미상모점,경상북도 구미시 상사서로  33-2 (상모동),36.0855088,128.3553207
대전복수목화점,"대전광역시 서구 복수서로 50 (복수동,삼익목화아파트) 1층",36.3084984,127.3740093
상암DMC점,"서울특별시 마포구 월드컵북로  396 1층 R119호 (상암동, 누리꿈스퀘어)",37.5793419,126.8898190
이천갈산점,경기도 이천시 안흥로  지하 53 외 1필지 1층 (갈산동),,
정읍상동점,전북특별자치도 정읍시 상동중앙로  49 (상동),35.5612137,126.8682267
청주강서점,충청북도 청주시 흥덕구 서현중로  35 (가경동),36.6217029,127.4290821
화곡시장점,서울특별시 강서구 화곡로  194-15 (화곡동),37.5426689,126.8436711
안양관악역점,경기도 안양시 만안구 경수대로1273번길  43 지상 1층 (석수동),37.4192142,126.9094741
등촌역점,서울특별시 강서구 등촌로  215 (등촌동),37.5489865,126.8632576
진주강남점,"경상남도 진주시 진주대로  895 ,5 (강남동)",35.1802908,128.0902266
포항구룡포점,경상북도 포항시 남구 구룡포읍 구룡포길  81-1,35.9910110,129.5548264
양양점,강원특별자치도 양양군 양양읍 남문3길  11-2,38.0751420,128.6241534
진주주약점,경상남도 진주시 진주대로816번길  3 102호 (주약동),35.1739207,128.0939817
만수3지구점,인천광역시 남동구 담방로  45,37.4435813,126.7385704
여의서로점,"서울특별시 영등포구 여의서로  43 201호 (여의도동, 한서리버파크)",37.5307262,126.9248515
공릉2동점,서울특별시 노원구 공릉로38길  14 1층 (공릉동),37.6231055,127.0802392
가양점,서울특별시 강서구 허준로  23 한강타운상가 112 (가양동),37.5715790,126.8452813
오산누읍점,"경기도 오산시 누읍로  20-0  (누읍동, 휴먼시아아파트)",37.1409362,127.0500908
남양주진건점,"경기도 남양주시 진건읍 진건오남로 83,1층6호7호",37.6581649,127.1780437
마산호계점,경남 창원시 마산회원구 내서읍 호계리 67-2,35.2662097,128.5236302
전남강진점,전라남도 강진군 강진읍 중앙로 102,34.6390248,126.7681672
중계브라운점,"서울특별시 노원구 동일로203가길  29 1층 185호 186호 (중계동, 브라운스톤중계)",37.6399301,127.0642714
포항학천점,경상북도 포항시 북구 흥해읍 도음로 903,36.0786924,129.3327151
동두천지행점,경기도 동두천시 지행로  106 (지행동),37.8923061,127.0590924
대전관평롯데점,대전광역시 유성구 관들1길  1 1층 (관평동),36.4255506,127.3875603
마포연남점,서울특별시 마포구 연남로  43 1층 (연남동),37.5632491,126.9208897
포항효자SK점,경상북도 포항시 남구 효성로  15 (효자동),36.0066747,129.3352973
부산장산역점,부산광역시 해운대구 해운대로  814 세종월드 121 120 (좌동),35.1695768,129.1776778
목4동점,"서울특별시 양천구 목동중앙로  67 상가 102호 (목동, 성원아파트)",37.5354785,126.8697034
천호시장점,"서울특별시 강동구 구천면로  250 1층 (천호동, 신성빌딩)",37.5425218,127.1314715
중계본동점,서울특별시 노원구 중계로  116-6 1층 (중계동),37.6459852,127.0824018
주문진점,강원특별자치도 강릉시 주문진읍 주문로 107,37.8934539,128.8271895
원주태장점,강원특별자치도 원주시 현충로58번길  42 (태장동),37.3618792,127.9590760
갈현시장점,서울특별시 은평구 통일로87길  18 (갈현동),37.6235315,126.9179243
경북봉화점,경상북도 봉화군 봉화읍 봉화로 1144,36.8907698,128.7350199
세명기독병원점,경상북도 포항시 남구 포스코대로 365,36.0168384,129.3631835
순천용당점,"전라남도 순천시 삼산로  90 101호 (용당동, 혜민빌딩)",34.9725407,127.4931403
순천연향점,"전라남도 순천시 연향3로  33 1층 (연향동, 그린빌딩)",34.9510031,127.5196900
청주용암현대점,충청북도 청주시 상당구 월평로184번길  8 (용암동),36.6098560,127.5042160
광주송정점,경기도 광주시 경안천로  114 (송정동),37.4161151,127.2721051
대전오류중앙점,대전광역시 중구 계룡로  858 (오류동),36.3242661,127.4098028
여수미평점,전라남도 여수시 대학로  15 1층 (미평동),34.7716001,127.7021171
대구안지랑점,대구광역시 남구 대명로  128 (대명동),35.8391470,128.5715809
인천만수시장점,"인천광역시 남동구 만수로19번길  3 1층 (만수동, 동성빌딩)",37.4589008,126.7308582
화곡옛길점,서울특별시 강서구 까치산로  80 1층 (화곡동),37.5456445,126.8476353
삼산미래타운점,인천광역시 부평구 부평북로  448-0 로얄프라자 (삼산동),37.5217204,126.7433662
광주금호종원점,"광주광역시 서구 화개1로79번길  3 105 (금호동, 신화빌딩)",,
시흥사거리점,서울특별시 금천구 시흥대로  229 (시흥동),37.4541266,126.9003849
충남합덕점,충청남도 당진시 합덕읍 중동길  43-1,36.8084700,126.7726416
강릉내곡점,강원특별자치도 강릉시 범일로  653 (내곡동),37.7448012,128.8838376
우이점,서울특별시 강북구 삼양로  621 (우이동),37.6582749,127.0135543
광주양벌리점,경기도 광주시 오포읍 양촌길  116-4,,
부천대성점,"경기도 부천시 원미구 부천로90번길 8 1층 (원미동, 아송빌딩)",37.4920261,126.7848137
청주복대어울림점,충청북도 청주시 흥덕구 대신로73번길  1 (복대동),36.6394542,127.4351897
광주태전점,경기도 광주시 고불로  57 (장지동),37.3929120,127.2316486
울진북면점,경상북도 울진군 북면 울진북로 2102,37.1036867,129.3746137
무악재점,서울특별시 서대문구 통일로  367-18 (홍제동),37.5827915,126.9492791
남양주오남양지점,경기도 남양주시 오남읍 진건오남로 782,37.6971942,127.2044955
충남광천점,충청남도 홍성군 광천읍 홍남로 670,36.5030160,126.6249778
역곡역남부점,"경기도 부천시 소사구 경인로  517 1층 (괴안동, 광장빌딩)",37.4848886,126.8124677
광주월계점,광주광역시 광산구 월계로  187 (월계동),35.2136586,126.8461579
청주금천장자점,충청북도 청주시 상당구 수영로  303-1 (용담동),36.6316120,127.5066446
진주상대점,경상남도 진주시 동진로  192 (상대동),35.1795399,128.1120534
대구칠곡점,"대구광역시 북구 학정로  421 105호 (동천동, 일도프라자)",35.9423723,128.5630982
대전한숲점,대전광역시 대덕구 계족로489번길  78 (중리동),36.3556840,127.4287032
김해어방점,경상남도 김해시 인제로  181 (어방동),35.2448157,128.9036893
강릉입암점,강원특별자치도 강릉시 성덕포남로  53 (입암동),37.7595952,128.9189549
인천원당점,"인천광역시 서구 고산후로95번길 인천광역시 서구 고산후로95번길 20,힘찬프라자(당하동)",37.5927843,126.6997180
신모라사거리점,부산광역시 사상구 백양대로  893 (모라동),35.1858648,128.9907076
부산동래역점,부산광역시 동래구 온천천로  149-1 (명륜동),35.2060244,129.0789609
대전대동오거리점,대전광역시 동구 동대전로  80-2 (대동),36.3297174,127.4434167
대전둔산법원점,"대전광역시 서구 둔산로137번길  44 소재 내 1층 103호 (둔산동, 서림빌딩)",36.3533109,127.3895344
산본롯데점,경기도 군포시 고산로539번길  11 롯데상가 101호 (산본동),37.3624322,126.9222105
청구성조점,대구광역시 수성구 국채보상로  846 청구성조타운상가 1층 (범어동),35.8666865,128.6231095
수원고색점,경기도 수원시 권선구 매송고색로  695 (고색동),37.2509809,126.9803776
종암노블레스점,"서울특별시 성북구 종암로  90 101 (종암동, 노블레스타워노인복지주택)",,
김해부원점,경상남도 김해시 가락로  22 (부원동),35.2284660,128.8825952
은평뉴타운점,"서울특별시 은평구 진관4로  37 801동 107호 (진관동, 은평뉴타운상림마을)",37.6452911,126.9248943
대송농산물시장점,울산광역시 동구 대학길  48 (화정동),35.4985854,129.4203911
이대역점,서울특별시 마포구 대흥로  194 (대흥동),37.5562335,126.9461350
부천중흥마을점,경기도 부천시 원미구 길주로  273,37.5039782,126.7728425
진영신도시점,경상남도 김해시 진영읍 장등로19번길  41 106 (유니온빌딩),,
천안성환점,충청남도 천안시 서북구 성환읍 성환12길 46,36.9170017,127.1330081
경남고성점,경상남도 고성군 고성읍 동외로  175 102 (양강빌딩),,
전남광양점,전라남도 광양시 광양읍 매천로  851 외 2필지,34.9749144,127.5884632
울산삼산본점점,"울산광역시 남구 월평로  258 상가 1층 5호 (삼산동, 우성아파트)",35.5468475,129.3327572
송내동신점,경기도 부천시 소사구 성주로  70 (송내동),37.4799724,126.7641505
광주양림점,광주광역시 남구 양림로  48 (양림동),35.1369430,126.9142709
개봉역북부점,"서울특별시 구로구 경인로40길  41 102 (개봉동, 대덕빌딩)",,
안동옥동점,경상북도 안동시 경북대로  417 (옥동),36.5658789,128.6991626
금호역점,서울특별시 성동구 장터길  25 (금호동3가),37.5484233,127.0187173
번동점,"서울특별시 강북구 오현로  194 1층 1호 (번동, 덕수빌딩)",37.6288428,127.0398909
통영죽림점,경상남도 통영시 광도면 죽림1로  41-14 106동상가 103호 (한선파라타운),34.8777929,128.4184888
삼천포용강점,경상남도 사천시 주공로  34 (벌리동),34.9413542,128.0868932
신설동역점,"서울특별시 종로구 종로  413 1층 (숭인동, 동보빌딩)",37.5759766,127.0227003
경북의성점,경상북도 의성군 의성읍 중앙길  78-1 1층,36.3512750,128.6968140
대전노은호반점,"대전광역시 유성구 지족로  355 1층 107호 (지족동, 월드프라자)",36.3870170,127.3161022
안양금정역점,경기도 군포시 군포로  747-1 (산본동),37.3719783,126.9427566
양구점,강원특별자치도 양구군 양구읍 중앙길 18,38.1066541,127.9891609
화천2호점,강원특별자치도 화천군 화천읍 중앙로 20,38.1042018,127.7061173
대전내동롯데점,"대전광역시 서구 신갈마로  46,롯데상가105,106호(내동)",36.3373691,127.3679560
부산대푸르지오점,"부산광역시 금정구 중앙대로  1617-12  (부곡동, 푸르지오)",35.2295618,129.0904449
신당역점,서울특별시 중구 퇴계로  404 (신당동),37.5651994,127.0165148
안산호수대림점,"경기도 안산시 단원구 광덕서로  44 1층 101호 (고잔동, 이노프라자)",37.3084431,126.8273389
원주문막점,강원특별자치도 원주시 문막읍 왕건로 52,37.3241752,127.8292793
구의역점,서울특별시 광진구 아차산로  370 (자양동),37.5364461,127.0840300
여수도원점,전라남도 여수시 무선로  6 (학동),34.7613603,127.6563770
용인보라점,경기도 용인시 기흥구 한보라1로  56 (보라동),37.2506081,127.1078455
안동병원점,경상북도 안동시 앙실로  11 안동병원 (수상동),36.5467408,128.7010976
광주신창점,광주광역시 광산구 신창로131번길  10 남양휴튼상가 101호 (신창동),35.1979899,126.8383342
철산역점,경기도 광명시 오리로  857 (철산동),37.4749016,126.8662685
개봉역점,서울특별시 구로구 남부순환로97길  3 (개봉동),37.4940221,126.8582496
제천청전점,충청북도 제천시 내재로  242 1층 (청전동),,
안양수촌마을점,경기도 안양시 동안구 관평로305번길  41 1층 (관양동),37.4037214,126.9547726
오산대림점,"경기도 오산시 경기대로  155 104 (원동, 신한프라자)",,
방화역점,서울특별시 강서구 금낭화로  136 에어뷰상가 1층 (방화동),37.5774317,126.8130280
군산나운점,전북특별자치도 군산시 수송로  48 (나운동),35.9665405,126.7012022
성대율전점,경기도 수원시 장안구 율전로  105 103호 (율전동),37.2985915,126.9688463
천안월봉점,"충청남도 천안시 서북구 월봉4로 88-11,월봉대우아파트상가102호(쌍용동)",36.7953877,127.1157064
순천금당점,전라남도 순천시 대석길  31 (연향동),34.9460207,127.5255097
길음뉴타운점,"서울특별시 성북구 길음로13길  22 두산아상가 21호 20 (길음동, 길음뉴타운7단지두산위브",37.6092194,127.0192671
마포구청역점,서울특별시 마포구 월드컵로  163 1층 (망원동),37.5621344,126.9043447
충남금산점,충청남도 금산군 금산읍 비범로  19 1층 (중부프라자),36.1045259,127.4910249
청주용암세원점,"충청북도 청주시 상당구 월평로253번길  67 1동 상가 1층 123호 (용암동, 세원한아름아파트)",36.6084386,127.5128369
마산월영점,"경상남도 창원시 마산합포구 해안대로 11,이화월드프라자103,104호(해운동)",35.1806315,128.5602339
제주도남점,제주특별자치도 제주시 도남로  54 (도남동),33.4955421,126.5270517
거제고현점,경상남도 거제시 거제중앙로  1845 (고현동),34.8831531,128.6254015
마산삼계점,경상남도 창원시 마산회원구 내서읍 삼계로 12,35.2322250,128.5034759
안양대림대점,"경기도 안양시 만안구 태평로134번길 19,센타프라자(안양동)",37.4010597,126.9250281
발산점,"서울특별시 강서구 강서로  360 107호 (내발산동, 솔레드림빌딩)",37.5576973,126.8384047
부천순천향점,"경기도 부천시 원미구 석천로  106 1층 (중동, 인성빌딩)",37.4967589,126.7617441
용인둔전점,경기도 용인시 처인구 포곡읍 포곡로118번길 2,37.2697098,127.2184254
강화점,인천광역시 강화군 강화읍 강화대로  412-1,37.7467822,126.4857731
신내점,서울특별시 중랑구 봉화산로56길  51 우남푸르미아상가 (신내동),37.6063865,127.0986341
안양인덕원점,경기도 안양시 동안구 흥안대로456번길  56 (평촌동),37.3936889,126.9786687
대전태평점,대전광역시 중구 평촌로  111 단지상가 105 104 (태평동),36.3239407,127.3998130
부산용호2호점,"부산광역시 남구 용호로 144 (용호동,정효경치과)",35.1195269,129.1118589
원주단구점,강원특별자치도 원주시 서원대로  402 (단구동),37.3304860,127.9493095
경남하동점,경상남도 하동군 하동읍 중앙로 20,35.0704209,127.7503597
창원반림점,경상남도 창원시 성산구 반송로  177 현대상가 101-1호 (반림동),35.2371939,128.6751170
월곡두산점,서울특별시 성북구 오패산로  46 두산위브상가 131호,37.6070692,127.0387215
진주호탄점,경상남도 진주시 가호로  41 (호탄동),35.1638694,128.1106712
경남남해점,경상남도 남해군 남해읍 화전로 68-1,34.8373232,127.8943841
포항이동점,경상북도 포항시 남구 대이로 115,36.0255396,129.3408575
창신점,서울특별시 종로구 지봉로  91-1 (창신동),37.5783310,127.0151701
수원권선점,경기도 수원시 권선구 권중로  99 (권선동),37.2498185,127.0305417
논산부영점,충청남도 논산시 시민로331번길  14 (강산동),36.1942097,127.0889291
경남옥포점,경상남도 거제시 옥포로  228 (옥포동),34.8952505,128.6909639
부천은하점,경기도 부천시 원미구 길주로  183 (중동),37.5052828,126.7629648
경남거창점,경상남도 거창군 거창읍 아림로 31,35.6859873,127.9104746
성남태평점,경기도 성남시 수정구 제일로 165-1 (태평동),37.4411577,127.1314377
삼천포벌리점,경상남도 사천시 벌리로  2 (벌리동),34.9385415,128.0799101
충북금왕점,충청북도 음성군 금왕읍 금석로 86,36.9929215,127.5972704
남가좌점,서울특별시 서대문구 가재울로 42 (남가좌동),37.5751331,126.9218546
